{
"type": "FeatureCollection",
"name": "johor_districts",
"crs": { "type": "name", "properties": { "name": "urn:ogc:def:crs:OGC:1.3:CRS84" } },
"features": [
{ "type": "Feature", "properties": { "code": "ST", "district": "Segamat", "dosm_name": "Segamat", "geo_name": "Segamat" }, "geometry": { "type": "Polygon", "coordinates": [ [ [ 102.701322215691505, 2.832076560575578 ], [ 102.761513857123276, 2.818555336465124 ], [ 102.796799381000085, 2.802289303000066 ], [ 102.974140423000051, 2.593967551000048 ], [ 103.151481466000064, 2.523101853000071 ], [ 103.28855210200004, 2.577741797000044 ], [ 103.38057771800004, 2.37642605700006 ], [ 103.320650633000071, 2.321992677000026 ], [ 103.286147160000041, 2.302940496000076 ], [ 103.21714021400004, 2.278444461000049 ], [ 103.164477018000071, 2.253948009000055 ], [ 103.154489170000033, 2.253040725000062 ], [ 103.129973544000052, 2.237616812000056 ], [ 103.10818187700005, 2.212212366000074 ], [ 103.104549932000054, 2.171382884000025 ], [ 103.077310348000083, 2.171382884000025 ], [ 103.055518681000081, 2.168660879000072 ], [ 103.028279097000052, 2.17410488400003 ], [ 102.964720067000087, 2.204046559000062 ], [ 102.968562897000083, 2.213778048000052 ], [ 103.023546237000062, 2.30201605600007 ], [ 102.979988007000088, 2.332458101000043 ], [ 102.964278481000065, 2.333647230000054 ], [ 102.958565926000063, 2.337214611000036 ], [ 102.954995579000069, 2.341257633000055 ], [ 102.953091394000069, 2.346727584000064 ], [ 102.938810007000086, 2.35600266900002 ], [ 102.919768158000068, 2.379784657000073 ], [ 102.919768158000068, 2.38406537100002 ], [ 102.905962817000045, 2.395718359000057 ], [ 102.901202355000066, 2.39643180500002 ], [ 102.899774216000083, 2.392388944000061 ], [ 102.895489800000064, 2.392626760000041 ], [ 102.890729337000039, 2.39904776700007 ], [ 102.887158991000035, 2.399285581000072 ], [ 102.883588644000042, 2.40261497900002 ], [ 102.881446436000033, 2.405944370000043 ], [ 102.881684459000041, 2.41070062700004 ], [ 102.874305742000047, 2.411414064000041 ], [ 102.868355164000036, 2.414267809000023 ], [ 102.863832725000066, 2.409273752000047 ], [ 102.860024355000064, 2.410938440000052 ], [ 102.860500401000081, 2.414743433000069 ], [ 102.857644124000046, 2.413554374000057 ], [ 102.853407312000058, 2.406790985000043 ], [ 102.853407312000058, 2.403594772000076 ], [ 102.851883964000081, 2.402072764000025 ], [ 102.849446608000051, 2.403290371000026 ], [ 102.849446608000051, 2.400855155000045 ], [ 102.847466255000086, 2.399789748000046 ], [ 102.850360617000035, 2.392788475000032 ], [ 102.84838026400007, 2.388374610000028 ], [ 102.846856916000036, 2.387004787000023 ], [ 102.843200881000087, 2.387918003000038 ], [ 102.843048546000034, 2.383351920000052 ], [ 102.840154185000074, 2.387461395000059 ], [ 102.838935507000087, 2.385482760000059 ], [ 102.838173833000042, 2.380764466000073 ], [ 102.839544846000081, 2.376350563000074 ], [ 102.838173833000042, 2.374980728000025 ], [ 102.833451454000055, 2.375437340000076 ], [ 102.829490750000048, 2.380155653000031 ], [ 102.827510397000083, 2.377415989000042 ], [ 102.827205728000081, 2.372849871000028 ], [ 102.822331014000042, 2.369044762000044 ], [ 102.821264671000051, 2.372241055000075 ], [ 102.818674979000036, 2.370871216000069 ], [ 102.81745630100005, 2.372697667000068 ], [ 102.811210574000086, 2.371784442000035 ], [ 102.805269517000056, 2.374067504000038 ], [ 102.800394804000064, 2.380003449000071 ], [ 102.802679825000041, 2.383199717000025 ], [ 102.805574187000047, 2.379546839000056 ], [ 102.806031191000045, 2.381677686000046 ], [ 102.808316213000069, 2.382743108000057 ], [ 102.806792865000034, 2.384265138000046 ], [ 102.809534891000055, 2.386243774000036 ], [ 102.806183526000041, 2.385939369000027 ], [ 102.80755453900008, 2.391723060000061 ], [ 102.803136830000085, 2.391266454000061 ], [ 102.800394804000064, 2.394462695000072 ], [ 102.800090134000072, 2.398572137000031 ], [ 102.791864055000076, 2.394767099000035 ], [ 102.779677271000082, 2.398572137000031 ], [ 102.777239915000052, 2.399941949000038 ], [ 102.776150959000063, 2.40853058700003 ], [ 102.769456559000048, 2.414475895000066 ], [ 102.75123291400007, 2.413361151000061 ], [ 102.740447491000054, 2.409645334000061 ], [ 102.729662069000085, 2.411503244000073 ], [ 102.719248557000071, 2.421164335000071 ], [ 102.714785624000058, 2.428595897000037 ], [ 102.70548784600004, 2.419306438000035 ], [ 102.699909179000088, 2.415962218000061 ], [ 102.701396823000039, 2.410760080000045 ], [ 102.693586690000075, 2.41187482600003 ], [ 102.689867578000076, 2.408159004000026 ], [ 102.687636112000064, 2.40555792300006 ], [ 102.687264201000062, 2.398126235000063 ], [ 102.683173178000061, 2.397011478000024 ], [ 102.670900111000037, 2.40667267300006 ], [ 102.669040556000084, 2.410388498000032 ], [ 102.670156289000033, 2.415219056000069 ], [ 102.669040556000084, 2.420049598000048 ], [ 102.65862704400007, 2.415590637000037 ], [ 102.654907933000061, 2.408902169000044 ], [ 102.632593266000072, 2.429710628000066 ], [ 102.628874154000073, 2.443458898000074 ], [ 102.624783132000061, 2.446059907000063 ], [ 102.624783132000061, 2.449404053000023 ], [ 102.632965177000074, 2.464638390000061 ], [ 102.631105621000074, 2.48210192800002 ], [ 102.614015727000037, 2.482204927000055 ], [ 102.611766243000034, 2.489414252000074 ], [ 102.607243804000063, 2.489889849000065 ], [ 102.605101596000054, 2.501779715000055 ], [ 102.60771985000008, 2.506297836000044 ], [ 102.60629171100004, 2.507724608000046 ], [ 102.606767757000057, 2.510102558000028 ], [ 102.608671942000058, 2.511767120000059 ], [ 102.612242289000051, 2.511767120000059 ], [ 102.618906936000087, 2.518900933000054 ], [ 102.619144960000085, 2.522467826000025 ], [ 102.613194382000074, 2.52674808300003 ], [ 102.610814150000067, 2.531028327000058 ], [ 102.608909965000066, 2.543631184000049 ], [ 102.610100081000041, 2.552191545000028 ], [ 102.613194382000074, 2.554569413000024 ], [ 102.608909965000066, 2.56526976400005 ], [ 102.616764728000078, 2.576921156000026 ], [ 102.616526705000069, 2.580250106000051 ], [ 102.619382983000037, 2.583341265000058 ], [ 102.623905422000064, 2.58429239000003 ], [ 102.622715306000032, 2.589285782000047 ], [ 102.628903907000051, 2.590712462000056 ], [ 102.632474254000044, 2.587145759000066 ], [ 102.634378439000045, 2.58809688100007 ], [ 102.634616462000054, 2.593328037000049 ], [ 102.638424832000055, 2.601174731000071 ], [ 102.639376925000079, 2.608308047000037 ], [ 102.63318832300007, 2.612112466000042 ], [ 102.627237746000048, 2.618770170000062 ], [ 102.627475769000057, 2.625903386000061 ], [ 102.625571584000056, 2.632085474000064 ], [ 102.701322215691505, 2.832076560575578 ] ] ] } },
{ "type": "Feature", "properties": { "code": "LG", "district": "Tangkak", "dosm_name": "Tangkak", "geo_name": "Ledang" }, "geometry": { "type": "Polygon", "coordinates": [ [ [ 102.593914509000058, 2.410760080000045 ], [ 102.593438463000041, 2.414981245000035 ], [ 102.595104625000033, 2.419975282000053 ], [ 102.592010324000057, 2.421639957000025 ], [ 102.59105823200008, 2.42592054000005 ], [ 102.594152532000066, 2.434006049000061 ], [ 102.592724393000083, 2.442329316000041 ], [ 102.595818694000059, 2.448274475000062 ], [ 102.596056717000067, 2.453743999000039 ], [ 102.599865087000069, 2.458024480000063 ], [ 102.605101596000054, 2.459213500000033 ], [ 102.605577642000071, 2.464682978000042 ], [ 102.616526705000069, 2.471579245000044 ], [ 102.614015727000037, 2.482204927000055 ], [ 102.631105621000074, 2.48210192800002 ], [ 102.632965177000074, 2.464638390000061 ], [ 102.624783132000061, 2.449404053000023 ], [ 102.624783132000061, 2.446059907000063 ], [ 102.628874154000073, 2.443458898000074 ], [ 102.632593266000072, 2.429710628000066 ], [ 102.654907933000061, 2.408902169000044 ], [ 102.65862704400007, 2.415590637000037 ], [ 102.669040556000084, 2.420049598000048 ], [ 102.670156289000033, 2.415219056000069 ], [ 102.669040556000084, 2.410388498000032 ], [ 102.670900111000037, 2.40667267300006 ], [ 102.683173178000061, 2.397011478000024 ], [ 102.687264201000062, 2.398126235000063 ], [ 102.687636112000064, 2.40555792300006 ], [ 102.689867578000076, 2.408159004000026 ], [ 102.693586690000075, 2.41187482600003 ], [ 102.701396823000039, 2.410760080000045 ], [ 102.699909179000088, 2.415962218000061 ], [ 102.70548784600004, 2.419306438000035 ], [ 102.714785624000058, 2.428595897000037 ], [ 102.719248557000071, 2.421164335000071 ], [ 102.729662069000085, 2.411503244000073 ], [ 102.740447491000054, 2.409645334000061 ], [ 102.75123291400007, 2.413361151000061 ], [ 102.769456559000048, 2.414475895000066 ], [ 102.776150959000063, 2.40853058700003 ], [ 102.777239915000052, 2.399941949000038 ], [ 102.791864055000076, 2.394767099000035 ], [ 102.800090134000072, 2.398572137000031 ], [ 102.800394804000064, 2.394462695000072 ], [ 102.803136830000085, 2.391266454000061 ], [ 102.80755453900008, 2.391723060000061 ], [ 102.805726521000054, 2.387461395000059 ], [ 102.806183526000041, 2.385939369000027 ], [ 102.809534891000055, 2.386243774000036 ], [ 102.806792865000034, 2.384265138000046 ], [ 102.808316213000069, 2.382743108000057 ], [ 102.806031191000045, 2.381677686000046 ], [ 102.805574187000047, 2.379546839000056 ], [ 102.802679825000041, 2.383199717000025 ], [ 102.800394804000064, 2.380003449000071 ], [ 102.805269517000056, 2.374067504000038 ], [ 102.811210574000086, 2.371784442000035 ], [ 102.81745630100005, 2.372697667000068 ], [ 102.818674979000036, 2.370871216000069 ], [ 102.821264671000051, 2.372241055000075 ], [ 102.822331014000042, 2.369044762000044 ], [ 102.825682380000046, 2.371327829000052 ], [ 102.827891234000049, 2.365753334000033 ], [ 102.82765321100004, 2.356478313000025 ], [ 102.830747512000073, 2.354575737000062 ], [ 102.831461581000042, 2.348630170000035 ], [ 102.818846356000051, 2.347203231000037 ], [ 102.821940656000038, 2.341971106000074 ], [ 102.819798448000086, 2.33911721100003 ], [ 102.819560425000077, 2.334836358000075 ], [ 102.817180194000059, 2.33293375300002 ], [ 102.805755084000054, 2.340781984000046 ], [ 102.805517061000046, 2.335787660000051 ], [ 102.800518576000059, 2.326750268000069 ], [ 102.796710206000057, 2.314383216000067 ], [ 102.800280552000061, 2.302967380000041 ], [ 102.790045558000088, 2.304632195000067 ], [ 102.787189281000053, 2.301540394000028 ], [ 102.798614391000058, 2.289173123000069 ], [ 102.796710206000057, 2.28370294900003 ], [ 102.799566483000035, 2.279897599000037 ], [ 102.805517061000046, 2.277757085000076 ], [ 102.807659269000055, 2.282513779000055 ], [ 102.811467639000057, 2.280373268000062 ], [ 102.811943685000074, 2.27656790900005 ], [ 102.809801477000065, 2.27347604800002 ], [ 102.798852414000066, 2.267767978000052 ], [ 102.793615905000081, 2.26253556100005 ], [ 102.793377882000073, 2.258967994000045 ], [ 102.794806021000056, 2.254924740000035 ], [ 102.797186252000074, 2.253973384000062 ], [ 102.803850899000054, 2.256589610000049 ], [ 102.810753570000088, 2.257065287000046 ], [ 102.81051554700008, 2.251594992000037 ], [ 102.808611362000079, 2.246124677000068 ], [ 102.801232645000084, 2.241130023000039 ], [ 102.780762657000082, 2.239465135000046 ], [ 102.773145917000079, 2.234232617000032 ], [ 102.771717778000038, 2.229475765000075 ], [ 102.773621963000039, 2.226859491000027 ], [ 102.777192310000032, 2.226145961000043 ], [ 102.785523119000061, 2.228524393000043 ], [ 102.79028358100004, 2.22607163400005 ], [ 102.786936381000032, 2.215665945000069 ], [ 102.774663314000065, 2.202287094000042 ], [ 102.767597003000049, 2.199685637000073 ], [ 102.75309246900008, 2.201172184000029 ], [ 102.747885714000063, 2.196340899000063 ], [ 102.742678958000056, 2.181475309000064 ], [ 102.731149713000036, 2.17961710000003 ], [ 102.71515753500006, 2.17404245900002 ], [ 102.71515753500006, 2.153601933000061 ], [ 102.706603579000046, 2.147283897000023 ], [ 102.697677712000086, 2.155831822000039 ], [ 102.692099045000077, 2.151743690000046 ], [ 102.686520378000068, 2.153230285000063 ], [ 102.681313623000051, 2.152115339000034 ], [ 102.677966423000044, 2.146912247000046 ], [ 102.670900111000037, 2.142452439000067 ], [ 102.665693356000077, 2.139479227000038 ], [ 102.66048660000007, 2.139479227000038 ], [ 102.657883222000066, 2.142452439000067 ], [ 102.652676466000059, 2.156946765000043 ], [ 102.648585444000048, 2.159548296000025 ], [ 102.636684288000083, 2.155088526000043 ], [ 102.63408091000008, 2.151743690000046 ], [ 102.63408091000008, 2.145797296000069 ], [ 102.645982066000045, 2.135019398000054 ], [ 102.644122510000045, 2.130559557000026 ], [ 102.637800021000032, 2.127957976000062 ], [ 102.627758421000067, 2.131302865000066 ], [ 102.621064021000052, 2.128329631000042 ], [ 102.613625798000044, 2.116436639000028 ], [ 102.606559487000084, 2.116808297000034 ], [ 102.604699932000074, 2.124613081000064 ], [ 102.610650509000038, 2.13724931400003 ], [ 102.616229176000047, 2.136506010000062 ], [ 102.623667399000055, 2.139850879000051 ], [ 102.62069211000005, 2.146912247000046 ], [ 102.608047132000081, 2.151000392000071 ], [ 102.600608909000073, 2.149885444000063 ], [ 102.599493176000067, 2.145425646000035 ], [ 102.595030242000064, 2.143195741000056 ], [ 102.598377442000071, 2.138364271000057 ], [ 102.596889798000063, 2.135391051000056 ], [ 102.587220109000043, 2.130187903000035 ], [ 102.586848198000041, 2.125356392000072 ], [ 102.589079664000053, 2.122011490000034 ], [ 102.581269531000032, 2.107888495000054 ], [ 102.585732464000046, 2.103800236000041 ], [ 102.59428642000006, 2.105658537000068 ], [ 102.600608909000073, 2.104171896000025 ], [ 102.603212287000076, 2.098596981000071 ], [ 102.600608909000073, 2.093765371000075 ], [ 102.595030242000064, 2.090048739000054 ], [ 102.590195398000048, 2.089305411000055 ], [ 102.57755042000008, 2.103428575000066 ], [ 102.573087486000077, 2.105658537000068 ], [ 102.570856019000075, 2.103056914000035 ], [ 102.570484108000073, 2.096367009000062 ], [ 102.566393086000062, 2.08447377300007 ], [ 102.56416161900006, 2.082615447000023 ], [ 102.554863841000042, 2.084845438000059 ], [ 102.551632082000083, 2.081501640000056 ], [ 102.547062038000035, 2.082567279000045 ], [ 102.533351907000053, 2.067800495000029 ], [ 102.510044683000046, 2.086829830000056 ], [ 102.491155168000034, 2.097029460000044 ], [ 102.488608813000042, 2.100252752000074 ], [ 102.488260807000074, 2.105554472000051 ], [ 102.491002834000085, 2.10722902200007 ], [ 102.49298318600006, 2.105706704000056 ], [ 102.49298318600006, 2.11042588600003 ], [ 102.485366446000057, 2.113927206000028 ], [ 102.485975785000051, 2.11149150600005 ], [ 102.484604772000068, 2.110882581000055 ], [ 102.48247208500004, 2.113470513000038 ], [ 102.486280455000042, 2.117732980000028 ], [ 102.490088825000043, 2.11895082500007 ], [ 102.490545829000041, 2.120929822000051 ], [ 102.502513632000046, 2.119112570000027 ], [ 102.504893863000063, 2.121015452000051 ], [ 102.502275608000048, 2.126010505000067 ], [ 102.504179793000048, 2.127437660000055 ], [ 102.506798048000064, 2.121253312000022 ], [ 102.516318972000079, 2.120539732000054 ], [ 102.515366880000045, 2.114117495000073 ], [ 102.521317458000055, 2.11839898900007 ], [ 102.530362336000053, 2.120064011000068 ], [ 102.530362336000053, 2.123869770000056 ], [ 102.533932683000046, 2.127675519000036 ], [ 102.530124313000044, 2.130767683000045 ], [ 102.534408729000063, 2.131956975000037 ], [ 102.538693146000071, 2.135286989000065 ], [ 102.53940721500004, 2.137903423000068 ], [ 102.534884776000069, 2.14860697000006 ], [ 102.532266521000054, 2.150509815000021 ], [ 102.532028498000045, 2.154077643000051 ], [ 102.533932683000046, 2.155266917000063 ], [ 102.534408729000063, 2.159548296000025 ], [ 102.530838383000059, 2.159786150000059 ], [ 102.531314429000076, 2.163829664000048 ], [ 102.529410244000076, 2.166683902000045 ], [ 102.525125828000057, 2.165256783000075 ], [ 102.525363851000066, 2.166921755000033 ], [ 102.521079435000047, 2.164305370000022 ], [ 102.517033042000037, 2.165256783000075 ], [ 102.515842926000062, 2.169062429000064 ], [ 102.51203455600006, 2.166921755000033 ], [ 102.505607932000032, 2.167635313000062 ], [ 102.502037585000039, 2.174533028000042 ], [ 102.494420846000082, 2.174295177000033 ], [ 102.492992707000042, 2.18000360800005 ], [ 102.494182822000084, 2.182857815000034 ], [ 102.490850499000032, 2.182382115000053 ], [ 102.487518175000048, 2.179052204000072 ], [ 102.483233759000086, 2.178814353000064 ], [ 102.479425389000085, 2.181906414000025 ], [ 102.476093065000043, 2.182382115000053 ], [ 102.474902950000057, 2.184522767000033 ], [ 102.477785261000065, 2.189093943000046 ], [ 102.470811928000046, 2.195481486000062 ], [ 102.469649705000052, 2.202449685000033 ], [ 102.486501928000052, 2.214063276000047 ], [ 102.496380817000045, 2.225096104000045 ], [ 102.496380817000045, 2.236128849000067 ], [ 102.489988595000057, 2.243096856000022 ], [ 102.491150817000062, 2.247161512000048 ], [ 102.494637484000066, 2.250064830000042 ], [ 102.495799706000071, 2.254710127000067 ], [ 102.501610817000085, 2.295355843000038 ], [ 102.506840818000057, 2.304065489000038 ], [ 102.509746373000041, 2.318000813000026 ], [ 102.51439526200005, 2.323807157000033 ], [ 102.513814151000076, 2.332516629000054 ], [ 102.509165262000067, 2.33832291300007 ], [ 102.509165262000067, 2.344129174000045 ], [ 102.514976373000081, 2.353999761000068 ], [ 102.520787485000085, 2.356322242000033 ], [ 102.534153041000081, 2.374901951000027 ], [ 102.534153041000081, 2.387094749000028 ], [ 102.547518596000032, 2.396384427000044 ], [ 102.565533041000037, 2.395223221000037 ], [ 102.593914509000058, 2.410760080000045 ] ] ] } },
{ "type": "Feature", "properties": { "code": "MR", "district": "Muar", "dosm_name": "Muar", "geo_name": "Muar" }, "geometry": { "type": "Polygon", "coordinates": [ [ [ 102.825682380000046, 2.371327829000052 ], [ 102.829490750000048, 2.380155653000031 ], [ 102.833451454000055, 2.375437340000076 ], [ 102.838173833000042, 2.374980728000025 ], [ 102.839544846000081, 2.376350563000074 ], [ 102.838173833000042, 2.380764466000073 ], [ 102.838935507000087, 2.385482760000059 ], [ 102.840154185000074, 2.387461395000059 ], [ 102.843048546000034, 2.383351920000052 ], [ 102.843200881000087, 2.387918003000038 ], [ 102.846856916000036, 2.387004787000023 ], [ 102.84838026400007, 2.388374610000028 ], [ 102.850360617000035, 2.392788475000032 ], [ 102.847466255000086, 2.399789748000046 ], [ 102.849446608000051, 2.400855155000045 ], [ 102.849446608000051, 2.403290371000026 ], [ 102.851883964000081, 2.402072764000025 ], [ 102.853407312000058, 2.403594772000076 ], [ 102.853407312000058, 2.406790985000043 ], [ 102.857644124000046, 2.413554374000057 ], [ 102.860500401000081, 2.414743433000069 ], [ 102.860024355000064, 2.410938440000052 ], [ 102.863832725000066, 2.409273752000047 ], [ 102.868355164000036, 2.414267809000023 ], [ 102.874305742000047, 2.411414064000041 ], [ 102.881684459000041, 2.41070062700004 ], [ 102.881446436000033, 2.405944370000043 ], [ 102.883588644000042, 2.40261497900002 ], [ 102.887158991000035, 2.399285581000072 ], [ 102.890729337000039, 2.39904776700007 ], [ 102.895489800000064, 2.392626760000041 ], [ 102.899774216000083, 2.392388944000061 ], [ 102.901202355000066, 2.39643180500002 ], [ 102.905962817000045, 2.395718359000057 ], [ 102.919768158000068, 2.38406537100002 ], [ 102.919768158000068, 2.379784657000073 ], [ 102.938810007000086, 2.35600266900002 ], [ 102.953091394000069, 2.346727584000064 ], [ 102.954995579000069, 2.341257633000055 ], [ 102.958565926000063, 2.337214611000036 ], [ 102.964278481000065, 2.333647230000054 ], [ 102.979988007000088, 2.332458101000043 ], [ 103.023546237000062, 2.30201605600007 ], [ 102.968562897000083, 2.213778048000052 ], [ 102.964720067000087, 2.204046559000062 ], [ 102.886980473000051, 2.082615447000023 ], [ 102.880657984000038, 2.082987112000069 ], [ 102.873219762000076, 2.08670376200007 ], [ 102.869128739000075, 2.080757119000054 ], [ 102.868384917000071, 2.076297122000028 ], [ 102.874335495000082, 2.061058703000072 ], [ 102.872475939000083, 2.051766913000051 ], [ 102.849417450000033, 2.033183171000076 ], [ 102.833425272000056, 2.012369126000067 ], [ 102.825987049000048, 1.997130104000064 ], [ 102.815201627000079, 1.983377693000023 ], [ 102.799953271000049, 1.958846083000026 ], [ 102.794746515000043, 1.920189486000027 ], [ 102.786192559000085, 1.900489152000034 ], [ 102.779870070000072, 1.891196463000028 ], [ 102.776476381000066, 1.866779687000076 ], [ 102.737541935000081, 1.869102897000062 ], [ 102.729406380000057, 1.866198885000074 ], [ 102.722433046000049, 1.860971651000057 ], [ 102.71778415700004, 1.854582788000073 ], [ 102.706743046000042, 1.854001981000067 ], [ 102.697445268000081, 1.864456475000054 ], [ 102.678268600000081, 1.877814904000047 ], [ 102.653280822000056, 1.914985646000048 ], [ 102.642239710000069, 1.935313056000041 ], [ 102.628874154000073, 1.952736356000059 ], [ 102.606210820000058, 1.971901777000028 ], [ 102.598075265000034, 1.981774787000063 ], [ 102.546937485000058, 2.027073719000043 ], [ 102.543450819000043, 2.036946396000076 ], [ 102.544613041000048, 2.042173083000023 ], [ 102.563208597000084, 2.047980493000068 ], [ 102.564370819000032, 2.051464929000076 ], [ 102.558559708000075, 2.056110832000059 ], [ 102.537639707000039, 2.060756721000075 ], [ 102.533275793000087, 2.067861837000066 ], [ 102.547062038000035, 2.082567279000045 ], [ 102.551632082000083, 2.081501640000056 ], [ 102.554863841000042, 2.084845438000059 ], [ 102.56416161900006, 2.082615447000023 ], [ 102.566393086000062, 2.08447377300007 ], [ 102.570484108000073, 2.096367009000062 ], [ 102.570856019000075, 2.103056914000035 ], [ 102.573087486000077, 2.105658537000068 ], [ 102.57755042000008, 2.103428575000066 ], [ 102.590195398000048, 2.089305411000055 ], [ 102.595030242000064, 2.090048739000054 ], [ 102.600608909000073, 2.093765371000075 ], [ 102.603212287000076, 2.098596981000071 ], [ 102.600608909000073, 2.104171896000025 ], [ 102.59428642000006, 2.105658537000068 ], [ 102.585732464000046, 2.103800236000041 ], [ 102.581269531000032, 2.107888495000054 ], [ 102.589079664000053, 2.122011490000034 ], [ 102.586848198000041, 2.125356392000072 ], [ 102.587220109000043, 2.130187903000035 ], [ 102.596889798000063, 2.135391051000056 ], [ 102.598377442000071, 2.138364271000057 ], [ 102.595030242000064, 2.143195741000056 ], [ 102.599493176000067, 2.145425646000035 ], [ 102.600608909000073, 2.149885444000063 ], [ 102.608047132000081, 2.151000392000071 ], [ 102.62069211000005, 2.146912247000046 ], [ 102.623667399000055, 2.139850879000051 ], [ 102.616229176000047, 2.136506010000062 ], [ 102.610650509000038, 2.13724931400003 ], [ 102.604699932000074, 2.124613081000064 ], [ 102.606559487000084, 2.116808297000034 ], [ 102.613625798000044, 2.116436639000028 ], [ 102.621064021000052, 2.128329631000042 ], [ 102.627758421000067, 2.131302865000066 ], [ 102.637800021000032, 2.127957976000062 ], [ 102.644122510000045, 2.130559557000026 ], [ 102.645982066000045, 2.135019398000054 ], [ 102.63408091000008, 2.145797296000069 ], [ 102.63408091000008, 2.151743690000046 ], [ 102.636684288000083, 2.155088526000043 ], [ 102.648585444000048, 2.159548296000025 ], [ 102.652676466000059, 2.156946765000043 ], [ 102.657883222000066, 2.142452439000067 ], [ 102.66048660000007, 2.139479227000038 ], [ 102.665693356000077, 2.139479227000038 ], [ 102.670900111000037, 2.142452439000067 ], [ 102.677966423000044, 2.146912247000046 ], [ 102.681313623000051, 2.152115339000034 ], [ 102.686520378000068, 2.153230285000063 ], [ 102.692099045000077, 2.151743690000046 ], [ 102.697677712000086, 2.155831822000039 ], [ 102.706603579000046, 2.147283897000023 ], [ 102.71515753500006, 2.153601933000061 ], [ 102.71515753500006, 2.17404245900002 ], [ 102.731149713000036, 2.17961710000003 ], [ 102.742678958000056, 2.181475309000064 ], [ 102.747885714000063, 2.196340899000063 ], [ 102.75309246900008, 2.201172184000029 ], [ 102.767597003000049, 2.199685637000073 ], [ 102.774663314000065, 2.202287094000042 ], [ 102.786936381000032, 2.215665945000069 ], [ 102.79028358100004, 2.22607163400005 ], [ 102.785523119000061, 2.228524393000043 ], [ 102.777192310000032, 2.226145961000043 ], [ 102.773621963000039, 2.226859491000027 ], [ 102.771717778000038, 2.229475765000075 ], [ 102.773145917000079, 2.234232617000032 ], [ 102.780762657000082, 2.239465135000046 ], [ 102.801232645000084, 2.241130023000039 ], [ 102.808611362000079, 2.246124677000068 ], [ 102.81051554700008, 2.251594992000037 ], [ 102.810753570000088, 2.257065287000046 ], [ 102.803850899000054, 2.256589610000049 ], [ 102.797186252000074, 2.253973384000062 ], [ 102.794806021000056, 2.254924740000035 ], [ 102.793377882000073, 2.258967994000045 ], [ 102.793615905000081, 2.26253556100005 ], [ 102.798852414000066, 2.267767978000052 ], [ 102.809801477000065, 2.27347604800002 ], [ 102.811943685000074, 2.27656790900005 ], [ 102.811467639000057, 2.280373268000062 ], [ 102.807659269000055, 2.282513779000055 ], [ 102.805517061000046, 2.277757085000076 ], [ 102.799566483000035, 2.279897599000037 ], [ 102.796710206000057, 2.28370294900003 ], [ 102.798614391000058, 2.289173123000069 ], [ 102.787189281000053, 2.301540394000028 ], [ 102.790045558000088, 2.304632195000067 ], [ 102.800280552000061, 2.302967380000041 ], [ 102.796710206000057, 2.314383216000067 ], [ 102.800518576000059, 2.326750268000069 ], [ 102.805517061000046, 2.335787660000051 ], [ 102.805755084000054, 2.340781984000046 ], [ 102.817180194000059, 2.33293375300002 ], [ 102.819560425000077, 2.334836358000075 ], [ 102.819798448000086, 2.33911721100003 ], [ 102.821940656000038, 2.341971106000074 ], [ 102.818846356000051, 2.347203231000037 ], [ 102.831461581000042, 2.348630170000035 ], [ 102.830747512000073, 2.354575737000062 ], [ 102.82765321100004, 2.356478313000025 ], [ 102.827891234000049, 2.365753334000033 ], [ 102.825682380000046, 2.371327829000052 ] ] ] } },
{ "type": "Feature", "properties": { "code": "BP", "district": "Batu Pahat", "dosm_name": "Batu Pahat", "geo_name": "Batu Pahat" }, "geometry": { "type": "Polygon", "coordinates": [ [ [ 102.964720067000087, 2.204046559000062 ], [ 103.028279097000052, 2.17410488400003 ], [ 103.055518681000081, 2.168660879000072 ], [ 103.077310348000083, 2.171382884000025 ], [ 103.104549932000054, 2.171382884000025 ], [ 103.168517193000071, 2.150628743000027 ], [ 103.162938526000062, 2.140594183000076 ], [ 103.172980126000084, 2.125728047000052 ], [ 103.171120571000074, 2.098596981000071 ], [ 103.239924128000041, 1.998616844000026 ], [ 103.237138663000053, 1.996400411000025 ], [ 103.245974081000043, 1.982850788000064 ], [ 103.231370172000084, 1.976687290000029 ], [ 103.227279150000072, 1.972970388000022 ], [ 103.222072394000065, 1.964421481000045 ], [ 103.213890350000042, 1.961076245000072 ], [ 103.207939772000088, 1.946951840000054 ], [ 103.197526260000075, 1.936544308000066 ], [ 103.202733016000082, 1.930597118000037 ], [ 103.19083186000006, 1.912755424000068 ], [ 103.193435238000063, 1.908666676000053 ], [ 103.198270082000079, 1.908666676000053 ], [ 103.203848749000088, 1.903462802000035 ], [ 103.203476838000086, 1.899374032000026 ], [ 103.189344216000052, 1.877814904000047 ], [ 103.20050154900008, 1.87000894800002 ], [ 103.196782438000071, 1.865548385000068 ], [ 103.193063327000061, 1.86852209500006 ], [ 103.193063327000061, 1.863318100000072 ], [ 103.189344216000052, 1.85551207900005 ], [ 103.18897230400006, 1.781539046000034 ], [ 103.227239066768846, 1.766215760473978 ], [ 103.213890350000042, 1.735072046000028 ], [ 103.204220660000033, 1.724663280000073 ], [ 103.196038616000067, 1.697525875000053 ], [ 103.193435238000063, 1.672246853000047 ], [ 103.201989194000078, 1.637301787000069 ], [ 103.20050154900008, 1.62837954500003 ], [ 103.196782438000071, 1.627636023000036 ], [ 103.188228482000056, 1.630238348000034 ], [ 103.18499750400008, 1.623407236000048 ], [ 103.129791947000058, 1.655936134000058 ], [ 103.075167501000067, 1.70356676900002 ], [ 103.039719722000086, 1.720992318000071 ], [ 103.029840833000037, 1.728543340000044 ], [ 102.97870305400005, 1.743645294000032 ], [ 102.958945275000076, 1.744806978000042 ], [ 102.94093083000007, 1.741321924000033 ], [ 102.907226385000058, 1.764555491000067 ], [ 102.888630829000078, 1.785465454000075 ], [ 102.886887495000053, 1.793597042000044 ], [ 102.893279718000088, 1.799405297000021 ], [ 102.895604162000041, 1.823218948000033 ], [ 102.889793051000083, 1.820895679000046 ], [ 102.885725273000048, 1.816829950000056 ], [ 102.865386384000033, 1.82844629300007 ], [ 102.842141939000044, 1.844709046000048 ], [ 102.815991938000082, 1.858067625000047 ], [ 102.795653048000077, 1.865037278000045 ], [ 102.775895270000035, 1.866779687000076 ], [ 102.779870070000072, 1.891196463000028 ], [ 102.786192559000085, 1.900489152000034 ], [ 102.794746515000043, 1.920189486000027 ], [ 102.799953271000049, 1.958846083000026 ], [ 102.815201627000079, 1.983377693000023 ], [ 102.825987049000048, 1.997130104000064 ], [ 102.833425272000056, 2.012369126000067 ], [ 102.849417450000033, 2.033183171000076 ], [ 102.872475939000083, 2.051766913000051 ], [ 102.874335495000082, 2.061058703000072 ], [ 102.868384917000071, 2.076297122000028 ], [ 102.869128739000075, 2.080757119000054 ], [ 102.873219762000076, 2.08670376200007 ], [ 102.880657984000038, 2.082987112000069 ], [ 102.886980473000051, 2.082615447000023 ], [ 102.964720067000087, 2.204046559000062 ] ] ] } },
{ "type": "Feature", "properties": { "code": "KG", "district": "Kluang", "dosm_name": "Kluang", "geo_name": "Kluang" }, "geometry": { "type": "Polygon", "coordinates": [ [ [ 103.104549932000054, 2.171382884000025 ], [ 103.10818187700005, 2.212212366000074 ], [ 103.129973544000052, 2.237616812000056 ], [ 103.154489170000033, 2.253040725000062 ], [ 103.164477018000071, 2.253948009000055 ], [ 103.21714021400004, 2.278444461000049 ], [ 103.286147160000041, 2.302940496000076 ], [ 103.320650633000071, 2.321992677000026 ], [ 103.38057771800004, 2.37642605700006 ], [ 103.46451195700007, 2.393481410000049 ], [ 103.534826404000057, 2.338903540000047 ], [ 103.630128629000069, 2.376063174000024 ], [ 103.623155295000061, 2.362128428000062 ], [ 103.62547974000006, 2.349935410000057 ], [ 103.62547974000006, 2.312194444000056 ], [ 103.626060851000034, 2.301742922000074 ], [ 103.628966406000075, 2.293033261000062 ], [ 103.628966406000075, 2.278517042000033 ], [ 103.618506406000051, 2.275033128000075 ], [ 103.610370850000038, 2.264581335000059 ], [ 103.613857517000042, 2.258774750000043 ], [ 103.613857517000042, 2.252968142000043 ], [ 103.561307108000051, 2.044051564000029 ], [ 103.568381155000054, 1.939042122000046 ], [ 103.551719537000054, 1.938328461000026 ], [ 103.550767444000087, 1.903834508000045 ], [ 103.560526392000043, 1.887182006000046 ], [ 103.567905109000037, 1.881948330000057 ], [ 103.574807779000082, 1.879807276000065 ], [ 103.592659513000058, 1.852687034000041 ], [ 103.599324160000037, 1.849594348000039 ], [ 103.604084622000073, 1.840554159000021 ], [ 103.60997569500006, 1.834695854000074 ], [ 103.619273473000078, 1.830235203000029 ], [ 103.623364495000033, 1.82019869800007 ], [ 103.627083606000042, 1.818340079000052 ], [ 103.629686984000045, 1.814622837000059 ], [ 103.630058895000047, 1.809046959000057 ], [ 103.63824094000006, 1.79231922300005 ], [ 103.632290362000049, 1.791575765000061 ], [ 103.615926273000071, 1.799382064000042 ], [ 103.607744228000058, 1.801612429000045 ], [ 103.58357000500007, 1.798266880000028 ], [ 103.569437382000046, 1.791204035000021 ], [ 103.562371071000086, 1.791204035000021 ], [ 103.554189026000074, 1.792690952000044 ], [ 103.525551870000072, 1.805329698000037 ], [ 103.520345114000065, 1.803842791000022 ], [ 103.504724847000034, 1.804957971000022 ], [ 103.486129291000054, 1.803471064000064 ], [ 103.444847156000037, 1.772617472000036 ], [ 103.437037023000073, 1.783397701000069 ], [ 103.429598800000065, 1.784884625000075 ], [ 103.407953573000043, 1.764662365000049 ], [ 103.363398621000044, 1.709956155000043 ], [ 103.274488618000078, 1.750034546000052 ], [ 103.258798618000071, 1.751777065000056 ], [ 103.18897230400006, 1.781539046000034 ], [ 103.189344216000052, 1.85551207900005 ], [ 103.193063327000061, 1.863318100000072 ], [ 103.193063327000061, 1.86852209500006 ], [ 103.196782438000071, 1.865548385000068 ], [ 103.20050154900008, 1.87000894800002 ], [ 103.189344216000052, 1.877814904000047 ], [ 103.203476838000086, 1.899374032000026 ], [ 103.203848749000088, 1.903462802000035 ], [ 103.198270082000079, 1.908666676000053 ], [ 103.193435238000063, 1.908666676000053 ], [ 103.19083186000006, 1.912755424000068 ], [ 103.202733016000082, 1.930597118000037 ], [ 103.197526260000075, 1.936544308000066 ], [ 103.207939772000088, 1.946951840000054 ], [ 103.213890350000042, 1.961076245000072 ], [ 103.222072394000065, 1.964421481000045 ], [ 103.227279150000072, 1.972970388000022 ], [ 103.231370172000084, 1.976687290000029 ], [ 103.245974081000043, 1.982850788000064 ], [ 103.237138663000053, 1.996400411000025 ], [ 103.239924128000041, 1.998616844000026 ], [ 103.171120571000074, 2.098596981000071 ], [ 103.172980126000084, 2.125728047000052 ], [ 103.162938526000062, 2.140594183000076 ], [ 103.168517193000071, 2.150628743000027 ], [ 103.104549932000054, 2.171382884000025 ] ] ] } },
{ "type": "Feature", "properties": { "code": "KJ", "district": "Kulai", "dosm_name": "Kulai", "geo_name": "Kulaijaya" }, "geometry": { "type": "Polygon", "coordinates": [ [ [ 103.362432825000042, 1.710391517000062 ], [ 103.363398621000044, 1.709956155000043 ], [ 103.407953573000043, 1.764662365000049 ], [ 103.429598800000065, 1.784884625000075 ], [ 103.437037023000073, 1.783397701000069 ], [ 103.444847156000037, 1.772617472000036 ], [ 103.486129291000054, 1.803471064000064 ], [ 103.504724847000034, 1.804957971000022 ], [ 103.520345114000065, 1.803842791000022 ], [ 103.525551870000072, 1.805329698000037 ], [ 103.554189026000074, 1.792690952000044 ], [ 103.562371071000086, 1.791204035000021 ], [ 103.569437382000046, 1.791204035000021 ], [ 103.58357000500007, 1.798266880000028 ], [ 103.607744228000058, 1.801612429000045 ], [ 103.615926273000071, 1.799382064000042 ], [ 103.632290362000049, 1.791575765000061 ], [ 103.645024599000067, 1.791070213000069 ], [ 103.643834483000035, 1.787501607000024 ], [ 103.658591917000081, 1.755383843000061 ], [ 103.662638310000034, 1.757762956000022 ], [ 103.665970633000086, 1.757762956000022 ], [ 103.678109812000059, 1.733257951000041 ], [ 103.671207142000071, 1.729689234000034 ], [ 103.672873304000063, 1.726358426000047 ], [ 103.719049789000053, 1.66497535600007 ], [ 103.73618745300007, 1.639755397000044 ], [ 103.720239904000039, 1.620245399000055 ], [ 103.71952583500007, 1.605731742000046 ], [ 103.708576771000082, 1.605731742000046 ], [ 103.702150147000054, 1.603590374000021 ], [ 103.68810678300008, 1.619055759000048 ], [ 103.682632251000086, 1.616200620000029 ], [ 103.68810678300008, 1.608824825000056 ], [ 103.680728067000075, 1.602638654000032 ], [ 103.672873304000063, 1.599307631000045 ], [ 103.668826911000053, 1.592883501000074 ], [ 103.660496102000081, 1.588124872000037 ], [ 103.658115870000074, 1.58741107700007 ], [ 103.653355408000039, 1.589790393000044 ], [ 103.650975177000078, 1.585031758000071 ], [ 103.641930298000034, 1.588124872000037 ], [ 103.638597975000039, 1.585507622000023 ], [ 103.60908310800005, 1.585031758000071 ], [ 103.600752299000078, 1.569804051000062 ], [ 103.601942414000064, 1.56552123900002 ], [ 103.593849628000044, 1.556955588000051 ], [ 103.582900565000045, 1.561952222000059 ], [ 103.578378126000075, 1.559810808000066 ], [ 103.568619178000063, 1.559334939000053 ], [ 103.561999160000084, 1.552910685000029 ], [ 103.553073293000068, 1.551423586000055 ], [ 103.552329471000064, 1.542872748000036 ], [ 103.550469915000065, 1.540642090000063 ], [ 103.54191595900005, 1.542500972000028 ], [ 103.532246270000087, 1.531719431000056 ], [ 103.525775017000058, 1.537206870000034 ], [ 103.520538508000072, 1.535779245000072 ], [ 103.515778046000037, 1.544820855000069 ], [ 103.513397814000086, 1.54458291900005 ], [ 103.507447237000065, 1.561000483000043 ], [ 103.508399329000042, 1.580748977000042 ], [ 103.507209213000067, 1.582176572000037 ], [ 103.505067005000058, 1.583366233000049 ], [ 103.501703069000087, 1.581002710000064 ], [ 103.458119735000082, 1.631539510000039 ], [ 103.362432825000042, 1.710391517000062 ] ] ] } },
{ "type": "Feature", "properties": { "code": "PN", "district": "Pontian", "dosm_name": "Pontian", "geo_name": "Pontian" }, "geometry": { "type": "Polygon", "coordinates": [ [ [ 103.18499750400008, 1.623407236000048 ], [ 103.188228482000056, 1.630238348000034 ], [ 103.196782438000071, 1.627636023000036 ], [ 103.20050154900008, 1.62837954500003 ], [ 103.201617283000076, 1.63209715000005 ], [ 103.201989194000078, 1.637301787000069 ], [ 103.193435238000063, 1.672246853000047 ], [ 103.196038616000067, 1.697525875000053 ], [ 103.204220660000033, 1.724663280000073 ], [ 103.213890350000042, 1.735072046000028 ], [ 103.227239066768846, 1.766215760473978 ], [ 103.258798618000071, 1.751777065000056 ], [ 103.274488618000078, 1.750034546000052 ], [ 103.362432825000042, 1.710391517000062 ], [ 103.458119735000082, 1.631539510000039 ], [ 103.501703069000087, 1.581002710000064 ], [ 103.505067005000058, 1.583366233000049 ], [ 103.507209213000067, 1.582176572000037 ], [ 103.508399329000042, 1.580748977000042 ], [ 103.507447237000065, 1.561000483000043 ], [ 103.513397814000086, 1.54458291900005 ], [ 103.515778046000037, 1.544820855000069 ], [ 103.520538508000072, 1.535779245000072 ], [ 103.525775017000058, 1.537206870000034 ], [ 103.532246270000087, 1.531719431000056 ], [ 103.54191595900005, 1.542500972000028 ], [ 103.549587885000051, 1.540833766000048 ], [ 103.548773071000085, 1.532207390000053 ], [ 103.543543070000055, 1.524074727000027 ], [ 103.574923071000057, 1.528141062000032 ], [ 103.574341960000083, 1.492705600000022 ], [ 103.581896405000066, 1.485734622000052 ], [ 103.577247516000057, 1.479344540000056 ], [ 103.562138627000081, 1.479925457000036 ], [ 103.554003071000068, 1.468888001000039 ], [ 103.552840849000063, 1.450879403000044 ], [ 103.541799737000076, 1.413118977000067 ], [ 103.535407515000088, 1.397433696000064 ], [ 103.537150848000067, 1.378843597000071 ], [ 103.539475293000066, 1.371291328000041 ], [ 103.54005640400004, 1.35618671800006 ], [ 103.545867515000054, 1.33585344100004 ], [ 103.52087973600004, 1.317262869000047 ], [ 103.517393070000082, 1.311453287000063 ], [ 103.511000847000048, 1.288214823000033 ], [ 103.512163070000042, 1.270785836000073 ], [ 103.516811959000052, 1.264395178000029 ], [ 103.511581958000079, 1.262071298000023 ], [ 103.505189736000034, 1.264976148000073 ], [ 103.481945291000045, 1.28937675100002 ], [ 103.481364180000071, 1.299216810000075 ], [ 103.47682424900006, 1.304663320000031 ], [ 103.456848554000032, 1.314648559000034 ], [ 103.449584665000032, 1.321002781000061 ], [ 103.439596817000051, 1.342788560000031 ], [ 103.435056887000087, 1.361850958000048 ], [ 103.418713136000065, 1.392713568000033 ], [ 103.414173206000044, 1.419944947000033 ], [ 103.402369386000032, 1.452622177000023 ], [ 103.394197510000083, 1.472591364000039 ], [ 103.388749594000046, 1.481668208000031 ], [ 103.37331382900004, 1.520698211000024 ], [ 103.362417996000033, 1.537036143000023 ], [ 103.337902370000052, 1.557912208000062 ], [ 103.276159313000051, 1.591495007000049 ], [ 103.267079451000086, 1.594217913000023 ], [ 103.260723548000044, 1.598756081000033 ], [ 103.243471812000053, 1.602386609000064 ], [ 103.18499750400008, 1.623407236000048 ] ] ] } },
{ "type": "Feature", "properties": { "code": "JB", "district": "Johor Bahru", "dosm_name": "Johor Bahru", "geo_name": "Johor Bahru" }, "geometry": { "type": "Polygon", "coordinates": [ [ [ 103.549587885000051, 1.540833766000048 ], [ 103.552329471000064, 1.542872748000036 ], [ 103.553073293000068, 1.551423586000055 ], [ 103.561999160000084, 1.552910685000029 ], [ 103.568619178000063, 1.559334939000053 ], [ 103.578378126000075, 1.559810808000066 ], [ 103.582900565000045, 1.561952222000059 ], [ 103.593849628000044, 1.556955588000051 ], [ 103.601942414000064, 1.56552123900002 ], [ 103.600752299000078, 1.569804051000062 ], [ 103.60908310800005, 1.585031758000071 ], [ 103.638597975000039, 1.585507622000023 ], [ 103.641930298000034, 1.588124872000037 ], [ 103.650975177000078, 1.585031758000071 ], [ 103.653355408000039, 1.589790393000044 ], [ 103.658115870000074, 1.58741107700007 ], [ 103.660496102000081, 1.588124872000037 ], [ 103.668826911000053, 1.592883501000074 ], [ 103.672873304000063, 1.599307631000045 ], [ 103.680728067000075, 1.602638654000032 ], [ 103.68810678300008, 1.608824825000056 ], [ 103.682632251000086, 1.616200620000029 ], [ 103.68810678300008, 1.619055759000048 ], [ 103.702150147000054, 1.603590374000021 ], [ 103.708576771000082, 1.605731742000046 ], [ 103.71952583500007, 1.605731742000046 ], [ 103.720239904000039, 1.620245399000055 ], [ 103.73618745300007, 1.639755397000044 ], [ 103.723387051000088, 1.658592628000065 ], [ 103.738215298000057, 1.671038656000064 ], [ 103.763784188000045, 1.668134334000058 ], [ 103.76552752200007, 1.658259606000058 ], [ 103.775406411000063, 1.657678739000062 ], [ 103.775406411000063, 1.647803959000044 ], [ 103.777149744000042, 1.641995242000064 ], [ 103.817246412000088, 1.62514986900004 ], [ 103.827125301000081, 1.619341087000066 ], [ 103.844558635000055, 1.602495524000062 ], [ 103.858505302000083, 1.599591103000023 ], [ 103.866059747000065, 1.600752872000044 ], [ 103.874195303000079, 1.60830435500003 ], [ 103.884074192000071, 1.625730746000045 ], [ 103.880006414000036, 1.630958634000024 ], [ 103.896277525000073, 1.651289181000038 ], [ 103.898601970000072, 1.661744810000073 ], [ 103.904413081000087, 1.673362110000028 ], [ 103.910805304000064, 1.672781247000046 ], [ 103.920103082000082, 1.666972604000023 ], [ 103.926495304000071, 1.666391738000073 ], [ 103.92591419300004, 1.66116394300002 ], [ 103.931725304000054, 1.655936134000058 ], [ 103.946834194000076, 1.651289181000038 ], [ 103.954969749000043, 1.644318731000055 ], [ 103.973565305000079, 1.635605635000047 ], [ 103.974727528000074, 1.611789645000044 ], [ 103.980538639000088, 1.599010218000046 ], [ 103.989255306000075, 1.586811600000033 ], [ 104.007269751000081, 1.573451127000055 ], [ 104.017729751000047, 1.559509672000047 ], [ 104.020635307000077, 1.551377114000047 ], [ 104.028770863000034, 1.441584587000023 ], [ 104.003783084000077, 1.422994841000047 ], [ 103.995066417000032, 1.422994841000047 ], [ 103.986930861000076, 1.425899499000025 ], [ 103.964848639000081, 1.423575773000039 ], [ 103.944509749000076, 1.428804153000044 ], [ 103.935793082000032, 1.429385083000057 ], [ 103.899183081000047, 1.428223222000042 ], [ 103.876519747000032, 1.440422733000048 ], [ 103.859086413000057, 1.461336026000026 ], [ 103.84804530200006, 1.470049841000048 ], [ 103.814340856000058, 1.478763622000031 ], [ 103.806205300000045, 1.477601787000026 ], [ 103.785285300000055, 1.463078792000033 ], [ 103.76494641000005, 1.452041253000061 ], [ 103.754486410000084, 1.450879403000044 ], [ 103.745188632000065, 1.452041253000061 ], [ 103.728917520000039, 1.46017418100007 ], [ 103.721363076000046, 1.461336026000026 ], [ 103.700443075000067, 1.450879403000044 ], [ 103.697537519000036, 1.443908295000028 ], [ 103.692888630000084, 1.439841805000071 ], [ 103.673130852000043, 1.432289733000061 ], [ 103.669644185000038, 1.42415670500003 ], [ 103.668481963000033, 1.416023648000021 ], [ 103.655116407000037, 1.402662135000071 ], [ 103.652791963000084, 1.38581490100006 ], [ 103.614438628000073, 1.322491482000032 ], [ 103.600491961000046, 1.262652269000057 ], [ 103.558651960000077, 1.33178676600005 ], [ 103.545867515000054, 1.33585344100004 ], [ 103.54005640400004, 1.35618671800006 ], [ 103.539475293000066, 1.371291328000041 ], [ 103.537150848000067, 1.378843597000071 ], [ 103.535407515000088, 1.397433696000064 ], [ 103.541799737000076, 1.413118977000067 ], [ 103.552840849000063, 1.450879403000044 ], [ 103.554003071000068, 1.468888001000039 ], [ 103.562138627000081, 1.479925457000036 ], [ 103.577247516000057, 1.479344540000056 ], [ 103.581896405000066, 1.485734622000052 ], [ 103.574341960000083, 1.492705600000022 ], [ 103.574923071000057, 1.528141062000032 ], [ 103.543543070000055, 1.524074727000027 ], [ 103.548773071000085, 1.532207390000053 ], [ 103.549587885000051, 1.540833766000048 ] ] ] } },
{ "type": "Feature", "properties": { "code": "KT", "district": "Kota Tinggi", "dosm_name": "Kota Tinggi", "geo_name": "Kota Tinggi" }, "geometry": { "type": "Polygon", "coordinates": [ [ [ 103.63824094000006, 1.79231922300005 ], [ 103.630058895000047, 1.809046959000057 ], [ 103.629686984000045, 1.814622837000059 ], [ 103.627083606000042, 1.818340079000052 ], [ 103.623364495000033, 1.82019869800007 ], [ 103.619273473000078, 1.830235203000029 ], [ 103.60997569500006, 1.834695854000074 ], [ 103.604084622000073, 1.840554159000021 ], [ 103.599324160000037, 1.849594348000039 ], [ 103.592659513000058, 1.852687034000041 ], [ 103.574807779000082, 1.879807276000065 ], [ 103.567905109000037, 1.881948330000057 ], [ 103.560526392000043, 1.887182006000046 ], [ 103.550767444000087, 1.903834508000045 ], [ 103.551719537000054, 1.938328461000026 ], [ 103.568381155000054, 1.939042122000046 ], [ 103.561307108000051, 2.044051564000029 ], [ 104.057825632000061, 2.04253978600002 ], [ 104.074678642000038, 2.027073719000043 ], [ 104.084557531000087, 2.008489694000048 ], [ 104.091530865000038, 2.002101386000049 ], [ 104.097341976000052, 1.987582412000052 ], [ 104.115937532000032, 1.967255634000026 ], [ 104.118843088000062, 1.949251710000055 ], [ 104.12755975400006, 1.93357071600002 ], [ 104.12988419900006, 1.924278206000054 ], [ 104.121167532000072, 1.926601338000069 ], [ 104.115356421000058, 1.923116639000057 ], [ 104.109545309000055, 1.92195507100007 ], [ 104.103734198000041, 1.909758559000068 ], [ 104.101409754000088, 1.898142753000059 ], [ 104.104315309000071, 1.881299695000052 ], [ 104.113031976000059, 1.865618082000026 ], [ 104.124073088000046, 1.852840367000056 ], [ 104.131627532000039, 1.848193903000038 ], [ 104.144411977000061, 1.843547426000043 ], [ 104.150804200000039, 1.846451475000038 ], [ 104.15138531100007, 1.856325207000054 ], [ 104.157196422000084, 1.850517136000065 ], [ 104.156034200000079, 1.845289856000022 ], [ 104.164169756000035, 1.817410769000048 ], [ 104.169399756000075, 1.808698466000067 ], [ 104.182765312000072, 1.793597042000044 ], [ 104.196130868000068, 1.759327964000022 ], [ 104.200198646000047, 1.736675176000062 ], [ 104.209496424000065, 1.722154016000047 ], [ 104.214145313000074, 1.717507221000062 ], [ 104.222280868000041, 1.700662495000074 ], [ 104.225186424000071, 1.686141062000047 ], [ 104.229835313000081, 1.678009011000029 ], [ 104.240295313000047, 1.664068276000023 ], [ 104.251336425000034, 1.653612659000032 ], [ 104.250174203000086, 1.648384830000055 ], [ 104.244944202000056, 1.642576115000054 ], [ 104.243781980000051, 1.628635130000021 ], [ 104.260053092000078, 1.611208764000025 ], [ 104.261215314000083, 1.604238175000035 ], [ 104.252498647000039, 1.599591103000023 ], [ 104.252498647000039, 1.592620475000047 ], [ 104.262377536000088, 1.579840929000056 ], [ 104.258309758000053, 1.576936476000071 ], [ 104.255985314000043, 1.572870235000039 ], [ 104.255404203000069, 1.554281603000049 ], [ 104.275161981000053, 1.536273709000056 ], [ 104.282716426000036, 1.517103849000023 ], [ 104.281554203000042, 1.506647490000034 ], [ 104.276324203000058, 1.505485670000041 ], [ 104.27225642500008, 1.502581115000055 ], [ 104.274580870000079, 1.481668208000031 ], [ 104.293176426000059, 1.449136628000076 ], [ 104.293176426000059, 1.441003660000035 ], [ 104.289108648000081, 1.434032521000063 ], [ 104.282716426000036, 1.435194379000052 ], [ 104.275743092000084, 1.430546944000071 ], [ 104.274580870000079, 1.417185515000028 ], [ 104.276324203000058, 1.403243072000066 ], [ 104.279229759000089, 1.388719605000063 ], [ 104.283878648000041, 1.377681711000037 ], [ 104.283878648000041, 1.370129438000049 ], [ 104.274580870000079, 1.363739035000037 ], [ 104.262958647000062, 1.359091458000023 ], [ 104.249593091000065, 1.359091458000023 ], [ 104.249593091000065, 1.367224712000052 ], [ 104.244363091000082, 1.370710383000073 ], [ 104.225186424000071, 1.35037722800007 ], [ 104.218213090000063, 1.349796278000042 ], [ 104.203104201000087, 1.339920110000037 ], [ 104.191481979000059, 1.345148675000075 ], [ 104.181021978000047, 1.338758206000023 ], [ 104.173467534000054, 1.33933915800003 ], [ 104.157196422000084, 1.347472478000043 ], [ 104.140925310000057, 1.342824870000072 ], [ 104.133951977000038, 1.343405821000033 ], [ 104.126978643000086, 1.357348615000035 ], [ 104.10838308700005, 1.364900928000054 ], [ 104.090949753000075, 1.374196050000023 ], [ 104.094436420000079, 1.378843597000071 ], [ 104.113613087000033, 1.393367124000065 ], [ 104.114194199000053, 1.400338386000044 ], [ 104.096179754000048, 1.423575773000039 ], [ 104.078165309000042, 1.437518093000051 ], [ 104.045623085000045, 1.443908295000028 ], [ 104.036906418000058, 1.443908295000028 ], [ 104.028770863000034, 1.441584587000023 ], [ 104.020635307000077, 1.551377114000047 ], [ 104.017729751000047, 1.559509672000047 ], [ 104.007269751000081, 1.573451127000055 ], [ 103.989255306000075, 1.586811600000033 ], [ 103.980538639000088, 1.599010218000046 ], [ 103.974727528000074, 1.611789645000044 ], [ 103.973565305000079, 1.635605635000047 ], [ 103.954969749000043, 1.644318731000055 ], [ 103.946834194000076, 1.651289181000038 ], [ 103.931725304000054, 1.655936134000058 ], [ 103.92591419300004, 1.66116394300002 ], [ 103.926495304000071, 1.666391738000073 ], [ 103.920103082000082, 1.666972604000023 ], [ 103.910805304000064, 1.672781247000046 ], [ 103.904413081000087, 1.673362110000028 ], [ 103.898601970000072, 1.661744810000073 ], [ 103.896277525000073, 1.651289181000038 ], [ 103.880006414000036, 1.630958634000024 ], [ 103.884074192000071, 1.625730746000045 ], [ 103.874195303000079, 1.60830435500003 ], [ 103.866059747000065, 1.600752872000044 ], [ 103.858505302000083, 1.599591103000023 ], [ 103.844558635000055, 1.602495524000062 ], [ 103.827125301000081, 1.619341087000066 ], [ 103.817246412000088, 1.62514986900004 ], [ 103.777149744000042, 1.641995242000064 ], [ 103.775406411000063, 1.647803959000044 ], [ 103.775406411000063, 1.657678739000062 ], [ 103.76552752200007, 1.658259606000058 ], [ 103.763784188000045, 1.668134334000058 ], [ 103.738215298000057, 1.671038656000064 ], [ 103.723387051000088, 1.658592628000065 ], [ 103.672873304000063, 1.726358426000047 ], [ 103.671207142000071, 1.729689234000034 ], [ 103.678109812000059, 1.733257951000041 ], [ 103.665970633000086, 1.757762956000022 ], [ 103.662638310000034, 1.757762956000022 ], [ 103.658591917000081, 1.755383843000061 ], [ 103.643834483000035, 1.787501607000024 ], [ 103.645024599000067, 1.791070213000069 ], [ 103.63824094000006, 1.79231922300005 ] ] ] } },
{ "type": "Feature", "properties": { "code": "MG", "district": "Mersing", "dosm_name": "Mersing", "geo_name": "Mersing" }, "geometry": { "type": "MultiPolygon", "coordinates": [ [ [ [ 104.103518660000077, 2.185544174000029 ], [ 104.100763208000046, 2.184563493000041 ], [ 104.100348002000032, 2.18222494500003 ], [ 104.096309188000077, 2.184601212000075 ], [ 104.099196751000079, 2.18678888300002 ], [ 104.099366608000082, 2.18901426900004 ], [ 104.103594152000085, 2.187071771000035 ], [ 104.103518660000077, 2.185544174000029 ] ] ], [ [ [ 104.062214477000055, 2.234866862000047 ], [ 104.066318172000081, 2.231341804000067 ], [ 104.06531024700007, 2.227672856000027 ], [ 104.067614075000051, 2.223644197000056 ], [ 104.070565856000087, 2.220550755000033 ], [ 104.074525561000087, 2.219543587000032 ], [ 104.075317502000075, 2.214435793000064 ], [ 104.079565187000071, 2.213572502000034 ], [ 104.085108774000048, 2.206090627000037 ], [ 104.086692657000071, 2.199400073000049 ], [ 104.090004410000063, 2.197529590000045 ], [ 104.090004410000063, 2.195515221000051 ], [ 104.079019040000048, 2.20095496600004 ], [ 104.075503676000039, 2.200252412000054 ], [ 104.071285240000066, 2.196563997000055 ], [ 104.074976372000037, 2.205345922000049 ], [ 104.072691385000041, 2.216235438000069 ], [ 104.063199903000054, 2.219572532000029 ], [ 104.061090685000067, 2.218869986000072 ], [ 104.060211844000037, 2.222207074000039 ], [ 104.055466104000061, 2.224139069000046 ], [ 104.051423435000061, 2.230286308000075 ], [ 104.060036076000074, 2.230813213000033 ], [ 104.062214477000055, 2.234866862000047 ] ] ], [ [ [ 104.093212320000077, 2.318134099000076 ], [ 104.094585509000069, 2.315938793000043 ], [ 104.098979714000052, 2.315938793000043 ], [ 104.104197832000068, 2.313194656000064 ], [ 104.108042761000036, 2.316762033000032 ], [ 104.111063776000037, 2.317036446000031 ], [ 104.121774650000077, 2.315389966000055 ], [ 104.130288421000046, 2.311822585000073 ], [ 104.14209784600007, 2.298925057000076 ], [ 104.144294948000038, 2.291515786000048 ], [ 104.143471035000061, 2.289320439000051 ], [ 104.135231901000054, 2.290692531000047 ], [ 104.136055814000088, 2.28630183100006 ], [ 104.134957263000047, 2.284655315000066 ], [ 104.128640594000046, 2.281087858000035 ], [ 104.109965225000053, 2.287125088000039 ], [ 104.111063776000037, 2.290692531000047 ], [ 104.106944209000062, 2.290966949000051 ], [ 104.094036234000043, 2.300845973000037 ], [ 104.094860147000077, 2.310450513000035 ], [ 104.094310871000062, 2.312920242000075 ], [ 104.092388407000044, 2.313194656000064 ], [ 104.093212320000077, 2.318134099000076 ] ] ], [ [ [ 103.976243869000086, 2.459099277000064 ], [ 103.978493702000037, 2.457525843000042 ], [ 103.978606193000076, 2.454154194000068 ], [ 103.983555825000053, 2.450445369000022 ], [ 103.986705591000032, 2.443702026000039 ], [ 103.989630374000058, 2.441117069000029 ], [ 103.989405390000059, 2.438082548000068 ], [ 103.997504788000072, 2.428416990000073 ], [ 103.992667648000065, 2.424595704000069 ], [ 103.980743534000055, 2.428641771000059 ], [ 103.975456428000086, 2.435385190000034 ], [ 103.975006461000078, 2.453479863000041 ], [ 103.972644137000088, 2.457413455000051 ], [ 103.976243869000086, 2.459099277000064 ] ] ], [ [ [ 104.523536769000088, 2.460173987000076 ], [ 104.525294451000036, 2.458066711000072 ], [ 104.528809814000056, 2.459471562000033 ], [ 104.532852483000056, 2.458417924000059 ], [ 104.541640892000032, 2.453149721000045 ], [ 104.539180137000074, 2.435237678000021 ], [ 104.528985583000065, 2.426281566000057 ], [ 104.522833696000077, 2.42593034500004 ], [ 104.519494101000078, 2.42733523000004 ], [ 104.516154505000088, 2.438749862000066 ], [ 104.514045287000044, 2.441032777000032 ], [ 104.510002619000034, 2.442964471000039 ], [ 104.50244458700007, 2.44243764600003 ], [ 104.501741515000049, 2.448583929000051 ], [ 104.503147660000081, 2.45437897100004 ], [ 104.498577687000079, 2.457013072000052 ], [ 104.499280760000033, 2.461052018000032 ], [ 104.50578418300006, 2.467549426000062 ], [ 104.512463374000049, 2.470007896000027 ], [ 104.511936069000058, 2.472817572000054 ], [ 104.518439492000084, 2.469305477000034 ], [ 104.523361001000069, 2.464212923000048 ], [ 104.524591378000082, 2.462632471000063 ], [ 104.523536769000088, 2.460173987000076 ] ] ], [ [ [ 103.959118142000079, 2.480586438000046 ], [ 103.962896422000085, 2.479988004000063 ], [ 103.964831638000078, 2.476949795000053 ], [ 103.963633647000051, 2.474233814000058 ], [ 103.960961205000046, 2.473313141000062 ], [ 103.958012305000068, 2.474878285000045 ], [ 103.956630007000058, 2.47791649800007 ], [ 103.959118142000079, 2.480586438000046 ] ] ], [ [ [ 104.504729574000066, 2.47685646900004 ], [ 104.508772242000077, 2.47685646900004 ], [ 104.511936069000058, 2.479139319000069 ], [ 104.513166446000071, 2.477558885000064 ], [ 104.505081110000049, 2.471412735000058 ], [ 104.492777337000064, 2.471763944000031 ], [ 104.492953106000073, 2.473695594000048 ], [ 104.501389978000077, 2.481773371000031 ], [ 104.504729574000066, 2.47685646900004 ] ] ], [ [ [ 103.847328455000081, 2.481014765000054 ], [ 103.850365729000032, 2.481014765000054 ], [ 103.853740478000077, 2.475507830000026 ], [ 103.847328455000081, 2.476294536000069 ], [ 103.844741147000036, 2.479104198000073 ], [ 103.837766665000061, 2.478654652000046 ], [ 103.841703873000085, 2.487870304000069 ], [ 103.844853639000064, 2.486184519000062 ], [ 103.847328455000081, 2.481014765000054 ] ] ], [ [ [ 103.951884120000045, 2.495409109000036 ], [ 103.954141872000037, 2.493936056000052 ], [ 103.955063404000043, 2.488366060000033 ], [ 103.953128188000051, 2.487721596000029 ], [ 103.947322539000083, 2.491726473000028 ], [ 103.947322539000083, 2.494856714000036 ], [ 103.951884120000045, 2.495409109000036 ] ] ], [ [ [ 104.325930868000057, 2.596389809000073 ], [ 104.326218847000064, 2.594304106000038 ], [ 104.330970493000052, 2.595023315000049 ], [ 104.334066263000068, 2.592937609000046 ], [ 104.336010119000036, 2.590492295000047 ], [ 104.332986344000062, 2.587759291000054 ], [ 104.334642220000035, 2.586033181000062 ], [ 104.33442623600007, 2.581789815000036 ], [ 104.340905755000051, 2.580854834000036 ], [ 104.344217508000042, 2.57725874800002 ], [ 104.346161364000068, 2.57215228900003 ], [ 104.340617776000045, 2.563305838000076 ], [ 104.334786210000061, 2.56208315300006 ], [ 104.33046653100007, 2.564168909000045 ], [ 104.325426906000075, 2.570857690000025 ], [ 104.318659409000077, 2.572727665000059 ], [ 104.317147521000038, 2.580854834000036 ], [ 104.315347655000039, 2.583228246000033 ], [ 104.311675928000057, 2.583803617000058 ], [ 104.309516089000056, 2.593584897000028 ], [ 104.316715553000051, 2.59775630300004 ], [ 104.325930868000057, 2.596389809000073 ] ] ], [ [ [ 103.38057771800004, 2.37642605700006 ], [ 103.28855210200004, 2.577741797000044 ], [ 103.354844665000087, 2.591708164000067 ], [ 103.41621, 2.558269961000065 ], [ 103.428483067000059, 2.56012766200007 ], [ 103.447078623000039, 2.554183010000031 ], [ 103.455632579000053, 2.548238330000061 ], [ 103.472368579000033, 2.52557398600004 ], [ 103.609231872000066, 2.459064872000056 ], [ 103.607744228000058, 2.467610924000041 ], [ 103.610719517000064, 2.472812841000064 ], [ 103.614438628000073, 2.465381524000065 ], [ 103.617785828000081, 2.463523688000066 ], [ 103.627083606000042, 2.465381524000065 ], [ 103.630058895000047, 2.47318440600003 ], [ 103.635265651000054, 2.47801473800007 ], [ 103.638612851000062, 2.488418471000045 ], [ 103.630430806000049, 2.488790031000065 ], [ 103.628571251000039, 2.493248747000052 ], [ 103.629315073000043, 2.498079006000069 ], [ 103.627455517000044, 2.506996360000073 ], [ 103.618157739000083, 2.519257623000044 ], [ 103.618529650000085, 2.524087786000052 ], [ 103.623364495000033, 2.531147222000072 ], [ 103.621876851000081, 2.533004962000064 ], [ 103.612579073000063, 2.529289479000056 ], [ 103.602537472000051, 2.53077567400004 ], [ 103.593611605000035, 2.527060185000039 ], [ 103.591008227000032, 2.529661028000021 ], [ 103.596586894000041, 2.543779802000074 ], [ 103.593239694000033, 2.548609873000032 ], [ 103.593611605000035, 2.553439926000067 ], [ 103.596586894000041, 2.556783799000073 ], [ 103.61183525000007, 2.566072287000054 ], [ 103.612950984000065, 2.559384582000064 ], [ 103.615554362000069, 2.557155339000076 ], [ 103.618157739000083, 2.559384582000064 ], [ 103.614438628000073, 2.568673052000065 ], [ 103.615926273000071, 2.573131493000062 ], [ 103.615182450000077, 2.57610377900005 ], [ 103.611463339000068, 2.577961454000047 ], [ 103.60811613900006, 2.57610377900005 ], [ 103.606628495000052, 2.569787663000056 ], [ 103.603281294000055, 2.567186901000071 ], [ 103.598074539000038, 2.570159201000024 ], [ 103.600677917000041, 2.582791396000061 ], [ 103.604768939000053, 2.587621320000039 ], [ 103.609231872000066, 2.58910744700006 ], [ 103.620389206000084, 2.585763659000065 ], [ 103.622992584000087, 2.587621320000039 ], [ 103.622992584000087, 2.591336633000026 ], [ 103.612950984000065, 2.595794995000062 ], [ 103.613322895000067, 2.598767228000042 ], [ 103.615182450000077, 2.600996398000063 ], [ 103.627455517000044, 2.60619777900007 ], [ 103.62671169500004, 2.609541512000021 ], [ 103.614438628000073, 2.619201137000061 ], [ 103.615554362000069, 2.62588852500005 ], [ 103.624108317000037, 2.63034676500007 ], [ 103.619273473000078, 2.631461322000064 ], [ 103.612950984000065, 2.635919541000021 ], [ 103.612579073000063, 2.648922590000041 ], [ 103.607744228000058, 2.650780157000042 ], [ 103.604025117000049, 2.649665617000039 ], [ 103.603653206000047, 2.644464417000052 ], [ 103.605884672000059, 2.639263195000069 ], [ 103.604768939000053, 2.632947397000066 ], [ 103.600677917000041, 2.631832841000062 ], [ 103.588404850000074, 2.649665617000039 ], [ 103.592123961000084, 2.65858190900002 ], [ 103.596958805000043, 2.663783050000063 ], [ 103.602909383000053, 2.666012103000071 ], [ 103.621876851000081, 2.656724354000062 ], [ 103.633034184000053, 2.663040031000037 ], [ 103.649341615000083, 2.657629912000061 ], [ 103.667501338000079, 2.664885967000032 ], [ 103.706544742000062, 2.641303633000064 ], [ 103.718348562000074, 2.636768517000064 ], [ 103.745588146000046, 2.634047440000074 ], [ 103.752852035000046, 2.649466799000038 ], [ 103.758299952000073, 2.650373815000023 ], [ 103.765563841000073, 2.63948958800006 ], [ 103.758299952000073, 2.628605267000069 ], [ 103.761931896000078, 2.617720850000069 ], [ 103.773735716000033, 2.611371564000024 ], [ 103.78372356400007, 2.599579947000052 ], [ 103.810055162000083, 2.578717585000049 ], [ 103.816411065000068, 2.571461031000069 ], [ 103.822766968000053, 2.557854881000026 ], [ 103.826398912000059, 2.530642149000073 ], [ 103.831846829000085, 2.520664003000036 ], [ 103.841834677000065, 2.511592896000025 ], [ 103.839110718000086, 2.50342884500003 ], [ 103.816411065000068, 2.500707484000031 ], [ 103.818227037000042, 2.486193460000038 ], [ 103.831846829000085, 2.458979237000051 ], [ 103.83366280100006, 2.439021787000058 ], [ 103.845466621000071, 2.435393128000044 ], [ 103.856362455000067, 2.422692744000074 ], [ 103.870890233000068, 2.397291619000043 ], [ 103.888141970000049, 2.375518851000038 ], [ 103.911749609000083, 2.351931298000068 ], [ 103.927185374000032, 2.341951829000038 ], [ 103.938989193000054, 2.336508452000032 ], [ 103.960780861000046, 2.313827488000072 ], [ 103.957148916000051, 2.308384002000025 ], [ 103.948977041000035, 2.304755 ], [ 103.948977041000035, 2.293867939000052 ], [ 103.975308639000048, 2.26483537200005 ], [ 103.982572528000048, 2.25122615600003 ], [ 103.977124611000079, 2.243060565000064 ], [ 103.962596833000077, 2.253948009000055 ], [ 103.953516972000045, 2.242153274000032 ], [ 103.953516972000045, 2.22400734200005 ], [ 103.955332944000077, 2.209490436000067 ], [ 103.964412805000052, 2.192251425000052 ], [ 103.980756556000074, 2.175919548000024 ], [ 103.998916278000081, 2.162309515000061 ], [ 104.010720098000036, 2.146884663000037 ], [ 104.018891973000052, 2.127830220000021 ], [ 104.022523918000047, 2.109682912000039 ], [ 104.030695793000064, 2.090628011000035 ], [ 104.040683641000044, 2.069758093000075 ], [ 104.05884336400004, 2.042536047000056 ], [ 103.561307108000051, 2.044051564000029 ], [ 103.613857517000042, 2.252968142000043 ], [ 103.613857517000042, 2.258774750000043 ], [ 103.610370850000038, 2.264581335000059 ], [ 103.618506406000051, 2.275033128000075 ], [ 103.628966406000075, 2.278517042000033 ], [ 103.628966406000075, 2.293033261000062 ], [ 103.626060851000034, 2.301742922000074 ], [ 103.62547974000006, 2.312194444000056 ], [ 103.62547974000006, 2.349935410000057 ], [ 103.623155295000061, 2.362128428000062 ], [ 103.630128629000069, 2.376063174000024 ], [ 103.534826404000057, 2.338903540000047 ], [ 103.46451195700007, 2.393481410000049 ], [ 103.38057771800004, 2.37642605700006 ] ] ] ] } }
]
}
