{"type": "FeatureCollection", "features": [{"type": "Feature", "geometry": {"type": "Point", "coordinates": [102.8108668, 2.5166512]}, "properties": {"name": "Klinik Mahkota", "amenity": "clinic", "lat": 2.5166512, "lon": 102.8108668, "osm_id": "node/185632242"}}, {"type": "Feature", "geometry": {"type": "Point", "coordinates": [103.0842182, 1.856595]}, "properties": {"name": "D15 PKU", "amenity": "hospital", "lat": 1.856595, "lon": 103.0842182, "osm_id": "way/223351221"}}, {"type": "Feature", "geometry": {"type": "Point", "coordinates": [103.0841362, 1.8569335]}, "properties": {"name": "PKU", "amenity": "hospital", "lat": 1.8569335, "lon": 103.0841362, "osm_id": "way/223351286"}}, {"type": "Feature", "geometry": {"type": "Point", "coordinates": [102.7670839, 2.1454724]}, "properties": {"name": "Klinik Dr Daris", "amenity": "clinic", "lat": 2.1454724, "lon": 102.7670839, "osm_id": "node/247172728"}}, {"type": "Feature", "geometry": {"type": "Point", "coordinates": [102.7807223, 2.1579704]}, "properties": {"name": "Klinik Desa", "amenity": "clinic", "lat": 2.1579704, "lon": 102.7807223, "osm_id": "node/247369217"}}, {"type": "Feature", "geometry": {"type": "Point", "coordinates": [103.6214619, 1.6410198]}, "properties": {"name": "Klinik Kesihatan Kulai", "amenity": "clinic", "lat": 1.6410198, "lon": 103.6214619, "osm_id": "way/259681423"}}, {"type": "Feature", "geometry": {"type": "Point", "coordinates": [103.6216469, 1.6391298]}, "properties": {"name": "Hospital Temenggung Seri Maharaja Tun Ibrahim", "amenity": "hospital", "lat": 1.6391298, "lon": 103.6216469, "osm_id": "way/259681678"}}, {"type": "Feature", "geometry": {"type": "Point", "coordinates": [102.6455409, 2.129118]}, "properties": {"name": "Klinik Desa Jorak", "amenity": "hospital", "lat": 2.129118, "lon": 102.6455409, "osm_id": "node/274829066"}}, {"type": "Feature", "geometry": {"type": "Point", "coordinates": [102.9542523, 2.5196506]}, "properties": {"name": "Klinik Desa", "amenity": "hospital", "lat": 2.5196506, "lon": 102.9542523, "osm_id": "node/286946163"}}, {"type": "Feature", "geometry": {"type": "Point", "coordinates": [102.6506049, 2.2099599]}, "properties": {"name": "Klinik Keluarga", "amenity": "clinic", "lat": 2.2099599, "lon": 102.6506049, "osm_id": "node/302537246"}}, {"type": "Feature", "geometry": {"type": "Point", "coordinates": [102.6535969, 2.2107739]}, "properties": {"name": "Klinik Malaya", "amenity": "clinic", "lat": 2.2107739, "lon": 102.6535969, "osm_id": "node/302537260"}}, {"type": "Feature", "geometry": {"type": "Point", "coordinates": [102.6528302, 2.2114929]}, "properties": {"name": "Klinik Wee", "amenity": "clinic", "lat": 2.2114929, "lon": 102.6528302, "osm_id": "node/302537261"}}, {"type": "Feature", "geometry": {"type": "Point", "coordinates": [102.6631907, 2.2183764]}, "properties": {"name": "Klinik Elizabeth", "amenity": "hospital", "lat": 2.2183764, "lon": 102.6631907, "osm_id": "node/302537262"}}, {"type": "Feature", "geometry": {"type": "Point", "coordinates": [102.7844333, 2.3625188]}, "properties": {"name": "Klinik Kesihatan Bukit Serampang", "amenity": "clinic", "lat": 2.3625188, "lon": 102.7844333, "osm_id": "node/303182662"}}, {"type": "Feature", "geometry": {"type": "Point", "coordinates": [103.6363531, 1.4260393]}, "properties": {"name": "Gleneagles Hospital Medini Johor", "amenity": "hospital", "lat": 1.4260393, "lon": 103.6363531, "osm_id": "way/308040637"}}, {"type": "Feature", "geometry": {"type": "Point", "coordinates": [102.7728586, 2.1516276]}, "properties": {"name": "Klinik Ho", "amenity": "doctors", "lat": 2.1516276, "lon": 102.7728586, "osm_id": "node/309505230"}}, {"type": "Feature", "geometry": {"type": "Point", "coordinates": [102.7182332, 2.1736523]}, "properties": {"name": "Klinik Ladang Lanadron", "amenity": "doctors", "lat": 2.1736523, "lon": 102.7182332, "osm_id": "node/318168208"}}, {"type": "Feature", "geometry": {"type": "Point", "coordinates": [102.5860478, 2.1626309]}, "properties": {"name": "Klinik Desa Serom 3", "amenity": "doctors", "lat": 2.1626309, "lon": 102.5860478, "osm_id": "node/338742056"}}, {"type": "Feature", "geometry": {"type": "Point", "coordinates": [102.8673381, 1.9099433]}, "properties": {"name": "Klinik Desa Separap", "amenity": "doctors", "lat": 1.9099433, "lon": 102.8673381, "osm_id": "node/341292181"}}, {"type": "Feature", "geometry": {"type": "Point", "coordinates": [102.9578161, 2.4659437]}, "properties": {"name": "Klinik Desa Tenang Stesen", "amenity": "clinic", "lat": 2.4659437, "lon": 102.9578161, "osm_id": "way/368231102"}}, {"type": "Feature", "geometry": {"type": "Point", "coordinates": [103.7621458, 1.4888437]}, "properties": {"name": "Klinik Mesra Plaza", "amenity": "clinic", "lat": 1.4888437, "lon": 103.7621458, "osm_id": "way/370141975"}}, {"type": "Feature", "geometry": {"type": "Point", "coordinates": [102.7565995, 2.1689123]}, "properties": {"name": "Klinik Desa", "amenity": "doctors", "lat": 2.1689123, "lon": 102.7565995, "osm_id": "node/373433340"}}, {"type": "Feature", "geometry": {"type": "Point", "coordinates": [103.6346887, 1.4264558]}, "properties": {"name": "Afiniti Wellness", "amenity": "hospital", "lat": 1.4264558, "lon": 103.6346887, "osm_id": "way/381268867"}}, {"type": "Feature", "geometry": {"type": "Point", "coordinates": [103.7667487, 1.5074409]}, "properties": {"name": "Klinik Desa Antoi, Kg. Dato Sulaiman Menteri", "amenity": "clinic", "lat": 1.5074409, "lon": 103.7667487, "osm_id": "way/382253902"}}, {"type": "Feature", "geometry": {"type": "Point", "coordinates": [103.7555659, 1.5134593]}, "properties": {"name": "Klinik Ibu Dan Anak", "amenity": "clinic", "lat": 1.5134593, "lon": 103.7555659, "osm_id": "way/384987948"}}, {"type": "Feature", "geometry": {"type": "Point", "coordinates": [103.7554083, 1.5136731]}, "properties": {"name": "Klinik Ibu Dan Anak", "amenity": "clinic", "lat": 1.5136731, "lon": 103.7554083, "osm_id": "way/384987949"}}, {"type": "Feature", "geometry": {"type": "Point", "coordinates": [103.755292, 1.5135403]}, "properties": {"name": "Klinik Ibu Dan Anak", "amenity": "clinic", "lat": 1.5135403, "lon": 103.755292, "osm_id": "way/384987950"}}, {"type": "Feature", "geometry": {"type": "Point", "coordinates": [103.7577369, 1.5144105]}, "properties": {"name": "Klinik Kesihatan Majidee", "amenity": "clinic", "lat": 1.5144105, "lon": 103.7577369, "osm_id": "way/385223556"}}, {"type": "Feature", "geometry": {"type": "Point", "coordinates": [103.7086704, 1.5017215]}, "properties": {"name": "Klinik Permai", "amenity": "clinic", "lat": 1.5017215, "lon": 103.7086704, "osm_id": "way/399069455"}}, {"type": "Feature", "geometry": {"type": "Point", "coordinates": [103.7404873, 1.5139685]}, "properties": {"name": "Klinik Ungku Mohsin Kita", "amenity": "clinic", "lat": 1.5139685, "lon": 103.7404873, "osm_id": "way/400192076"}}, {"type": "Feature", "geometry": {"type": "Point", "coordinates": [103.7909643, 1.5478211]}, "properties": {"name": "Hospital Sultan Ismail", "amenity": "hospital", "lat": 1.5478211, "lon": 103.7909643, "osm_id": "way/404665636"}}, {"type": "Feature", "geometry": {"type": "Point", "coordinates": [103.7895501, 1.5481317]}, "properties": {"name": "Klinik Kesihatan Sultan Ismail", "amenity": "clinic", "lat": 1.5481317, "lon": 103.7895501, "osm_id": "way/457960355"}}, {"type": "Feature", "geometry": {"type": "Point", "coordinates": [103.8200277, 1.5099899]}, "properties": {"name": "Klinik Desa Pemas Jaya", "amenity": "clinic", "lat": 1.5099899, "lon": 103.8200277, "osm_id": "way/472575421"}}, {"type": "Feature", "geometry": {"type": "Point", "coordinates": [103.9025722, 1.4763221]}, "properties": {"name": "Klinik Wakaf", "amenity": "clinic", "lat": 1.4763221, "lon": 103.9025722, "osm_id": "way/486357202"}}, {"type": "Feature", "geometry": {"type": "Point", "coordinates": [103.9310184, 1.4349067]}, "properties": {"name": "Klinik Kesihatan", "amenity": "clinic", "lat": 1.4349067, "lon": 103.9310184, "osm_id": "way/486694736"}}, {"type": "Feature", "geometry": {"type": "Point", "coordinates": [103.9084942, 1.4540458]}, "properties": {"name": "Qualitas", "amenity": "clinic", "lat": 1.4540458, "lon": 103.9084942, "osm_id": "way/486697191"}}, {"type": "Feature", "geometry": {"type": "Point", "coordinates": [104.2079079, 1.5730406]}, "properties": {"name": "Poliklinik Desaru Dr.Abdullah@Maliq", "amenity": "clinic", "lat": 1.5730406, "lon": 104.2079079, "osm_id": "way/491874095"}}, {"type": "Feature", "geometry": {"type": "Point", "coordinates": [103.6358293, 1.4265389]}, "properties": {"name": null, "amenity": "hospital", "lat": 1.4265389, "lon": 103.6358293, "osm_id": "way/531665224"}}, {"type": "Feature", "geometry": {"type": "Point", "coordinates": [103.705974, 1.5217012]}, "properties": {"name": "Hospital Permai Johor Bahru", "amenity": "hospital", "lat": 1.5217012, "lon": 103.705974, "osm_id": "way/541801520"}}, {"type": "Feature", "geometry": {"type": "Point", "coordinates": [102.7654629, 2.0276015]}, "properties": {"name": "Klinik Kesihatan Air Hitam Batu 15", "amenity": "clinic", "lat": 2.0276015, "lon": 102.7654629, "osm_id": "way/543846985"}}, {"type": "Feature", "geometry": {"type": "Point", "coordinates": [103.3833735, 1.5011947]}, "properties": {"name": "Klinik Kesihatan Pontian", "amenity": "clinic", "lat": 1.5011947, "lon": 103.3833735, "osm_id": "way/564041252"}}, {"type": "Feature", "geometry": {"type": "Point", "coordinates": [103.7467094, 1.4601903]}, "properties": {"name": "Hospital Sultanah Aminah", "amenity": "hospital", "lat": 1.4601903, "lon": 103.7467094, "osm_id": "way/566502798"}}, {"type": "Feature", "geometry": {"type": "Point", "coordinates": [103.7411178, 1.4759938]}, "properties": {"name": "KPJ Johor Specialist Hospital", "amenity": "hospital", "lat": 1.4759938, "lon": 103.7411178, "osm_id": "way/577340077"}}, {"type": "Feature", "geometry": {"type": "Point", "coordinates": [102.7558732, 2.1107614]}, "properties": {"name": "Klinik Desa", "amenity": "doctors", "lat": 2.1107614, "lon": 102.7558732, "osm_id": "node/577502608"}}, {"type": "Feature", "geometry": {"type": "Point", "coordinates": [102.8630771, 2.4946589]}, "properties": {"name": null, "amenity": "clinic", "lat": 2.4946589, "lon": 102.8630771, "osm_id": "way/581223835"}}, {"type": "Feature", "geometry": {"type": "Point", "coordinates": [102.8140887, 2.5048188]}, "properties": {"name": "Klinik Kesihatan Segamat", "amenity": "clinic", "lat": 2.5048188, "lon": 102.8140887, "osm_id": "way/584629152"}}, {"type": "Feature", "geometry": {"type": "Point", "coordinates": [102.8593543, 2.4926099]}, "properties": {"name": "Hospital Segamat", "amenity": "hospital", "lat": 2.4926099, "lon": 102.8593543, "osm_id": "way/592864450"}}, {"type": "Feature", "geometry": {"type": "Point", "coordinates": [102.8630677, 2.4940134]}, "properties": {"name": "Klinik Kesihatan Bandar Putra Segamat", "amenity": "clinic", "lat": 2.4940134, "lon": 102.8630677, "osm_id": "way/592871516"}}, {"type": "Feature", "geometry": {"type": "Point", "coordinates": [103.7709754, 1.4882605]}, "properties": {"name": "Klinik Kesihatan Tebrau", "amenity": "clinic", "lat": 1.4882605, "lon": 103.7709754, "osm_id": "way/628158747"}}, {"type": "Feature", "geometry": {"type": "Point", "coordinates": [102.9508618, 1.8611731]}, "properties": {"name": "Pantai Hospital Batu Pahat", "amenity": "hospital", "lat": 1.8611731, "lon": 102.9508618, "osm_id": "way/644303119"}}, {"type": "Feature", "geometry": {"type": "Point", "coordinates": [102.942165, 1.8366641]}, "properties": {"name": "Hospital Sultanah Nora Ismail", "amenity": "hospital", "lat": 1.8366641, "lon": 102.942165, "osm_id": "way/645615265"}}, {"type": "Feature", "geometry": {"type": "Point", "coordinates": [103.8460671, 2.4283848]}, "properties": {"name": "Hospital Mersing", "amenity": "hospital", "lat": 2.4283848, "lon": 103.8460671, "osm_id": "way/645695937"}}, {"type": "Feature", "geometry": {"type": "Point", "coordinates": [102.5482233, 2.2705195]}, "properties": {"name": "Hospital Tangkak", "amenity": "hospital", "lat": 2.2705195, "lon": 102.5482233, "osm_id": "way/646004943"}}, {"type": "Feature", "geometry": {"type": "Point", "coordinates": [103.3479799, 2.0061506]}, "properties": {"name": "Hospital Enche' Besar Hajjah Khalsom", "amenity": "hospital", "lat": 2.0061506, "lon": 103.3479799, "osm_id": "way/655288618"}}, {"type": "Feature", "geometry": {"type": "Point", "coordinates": [104.0605901, 1.9030394]}, "properties": {"name": "Klinik Desa Kampung Gembut", "amenity": "clinic", "lat": 1.9030394, "lon": 104.0605901, "osm_id": "way/669452346"}}, {"type": "Feature", "geometry": {"type": "Point", "coordinates": [103.3186768, 2.0339524]}, "properties": {"name": null, "amenity": "clinic", "lat": 2.0339524, "lon": 103.3186768, "osm_id": "way/680684974"}}, {"type": "Feature", "geometry": {"type": "Point", "coordinates": [103.1505112, 1.8837825]}, "properties": {"name": "klinik desa kg pt semarang", "amenity": "clinic", "lat": 1.8837825, "lon": 103.1505112, "osm_id": "way/685547268"}}, {"type": "Feature", "geometry": {"type": "Point", "coordinates": [102.9224176, 1.8578705]}, "properties": {"name": "Putra Specialist Hospital", "amenity": "hospital", "lat": 1.8578705, "lon": 102.9224176, "osm_id": "way/686593673"}}, {"type": "Feature", "geometry": {"type": "Point", "coordinates": [102.7282517, 2.1448027]}, "properties": {"name": "Pusat Kesihatan Universiti (PKU)", "amenity": "clinic", "lat": 2.1448027, "lon": 102.7282517, "osm_id": "way/690430641"}}, {"type": "Feature", "geometry": {"type": "Point", "coordinates": [103.6446995, 1.5991328]}, "properties": {"name": "Klinik Kesihatan Senai", "amenity": "clinic", "lat": 1.5991328, "lon": 103.6446995, "osm_id": "way/702413628"}}, {"type": "Feature", "geometry": {"type": "Point", "coordinates": [103.8862367, 1.4916607]}, "properties": {"name": "Klinik Kesihatan Masai", "amenity": "clinic", "lat": 1.4916607, "lon": 103.8862367, "osm_id": "way/724877445"}}, {"type": "Feature", "geometry": {"type": "Point", "coordinates": [103.8202073, 1.6136219]}, "properties": {"name": "Klinik Kesihatan", "amenity": "clinic", "lat": 1.6136219, "lon": 103.8202073, "osm_id": "way/725004491"}}, {"type": "Feature", "geometry": {"type": "Point", "coordinates": [102.8582537, 2.4913616]}, "properties": {"name": "kuarters doktor", "amenity": "hospital", "lat": 2.4913616, "lon": 102.8582537, "osm_id": "way/750970585"}}, {"type": "Feature", "geometry": {"type": "Point", "coordinates": [103.257885, 1.6457231]}, "properties": {"name": "Klinik Kesihatan Benut", "amenity": "clinic", "lat": 1.6457231, "lon": 103.257885, "osm_id": "way/750977871"}}, {"type": "Feature", "geometry": {"type": "Point", "coordinates": [103.8958384, 1.4771326]}, "properties": {"name": "KPJ Pasir Gudang Specialist Hospital", "amenity": "hospital", "lat": 1.4771326, "lon": 103.8958384, "osm_id": "way/767819531"}}, {"type": "Feature", "geometry": {"type": "Point", "coordinates": [103.7402583, 1.5442899]}, "properties": {"name": "KPJ Bandar Dato Onn Specialist Hospital", "amenity": "hospital", "lat": 1.5442899, "lon": 103.7402583, "osm_id": "way/768081189"}}, {"type": "Feature", "geometry": {"type": "Point", "coordinates": [102.9913337, 1.8681371]}, "properties": {"name": "KPJ Batu Pahat Specialist Hospital", "amenity": "hospital", "lat": 1.8681371, "lon": 102.9913337, "osm_id": "way/769266377"}}, {"type": "Feature", "geometry": {"type": "Point", "coordinates": [103.6190971, 1.5627104]}, "properties": {"name": "Poliklinik Penawar", "amenity": "clinic", "lat": 1.5627104, "lon": 103.6190971, "osm_id": "way/778438561"}}, {"type": "Feature", "geometry": {"type": "Point", "coordinates": [103.9350734, 1.5239225]}, "properties": {"name": "Klinik Kesihatan Cahaya Baru", "amenity": "clinic", "lat": 1.5239225, "lon": 103.9350734, "osm_id": "way/779026635"}}, {"type": "Feature", "geometry": {"type": "Point", "coordinates": [103.6190945, 1.5643491]}, "properties": {"name": "Klinik Norila", "amenity": "clinic", "lat": 1.5643491, "lon": 103.6190945, "osm_id": "way/779315516"}}, {"type": "Feature", "geometry": {"type": "Point", "coordinates": [103.4766264, 1.5240571]}, "properties": {"name": "Klinik Desa Pengkalan Raja", "amenity": "clinic", "lat": 1.5240571, "lon": 103.4766264, "osm_id": "way/791667929"}}, {"type": "Feature", "geometry": {"type": "Point", "coordinates": [103.5928056, 1.5572908]}, "properties": {"name": "Klinik Desa Kangkar Pulai", "amenity": "clinic", "lat": 1.5572908, "lon": 103.5928056, "osm_id": "way/792397463"}}, {"type": "Feature", "geometry": {"type": "Point", "coordinates": [102.9522245, 1.9094034]}, "properties": {"name": "Klinik Kesihatan Tongkang Pechah", "amenity": "clinic", "lat": 1.9094034, "lon": 102.9522245, "osm_id": "way/823878530"}}, {"type": "Feature", "geometry": {"type": "Point", "coordinates": [103.765869, 1.4999952]}, "properties": {"name": "Columbia Asia Hospital", "amenity": "hospital", "lat": 1.4999952, "lon": 103.765869, "osm_id": "way/826059668"}}, {"type": "Feature", "geometry": {"type": "Point", "coordinates": [102.9419622, 1.8494214]}, "properties": {"name": "Klinik Kesihatan Batu Pahat", "amenity": "clinic", "lat": 1.8494214, "lon": 102.9419622, "osm_id": "way/839052522"}}, {"type": "Feature", "geometry": {"type": "Point", "coordinates": [103.0346703, 1.7987925]}, "properties": {"name": "Klinik Desa Parit Kasih", "amenity": "clinic", "lat": 1.7987925, "lon": 103.0346703, "osm_id": "way/839536676"}}, {"type": "Feature", "geometry": {"type": "Point", "coordinates": [103.0136144, 1.7554224]}, "properties": {"name": "Klinik Desa Tanjong Laboh", "amenity": "clinic", "lat": 1.7554224, "lon": 103.0136144, "osm_id": "way/839786880"}}, {"type": "Feature", "geometry": {"type": "Point", "coordinates": [103.0651232, 1.8207052]}, "properties": {"name": "Klinik Desa Sri Pandan", "amenity": "clinic", "lat": 1.8207052, "lon": 103.0651232, "osm_id": "way/840597677"}}, {"type": "Feature", "geometry": {"type": "Point", "coordinates": [103.3046716, 1.8260503]}, "properties": {"name": "Pusat Dialisis Klinik Kesihatan Simpang Renggam", "amenity": "clinic", "lat": 1.8260503, "lon": 103.3046716, "osm_id": "way/841593167"}}, {"type": "Feature", "geometry": {"type": "Point", "coordinates": [103.3053627, 1.8264989]}, "properties": {"name": "Klinik Kesihatan Simpang Renggam", "amenity": "clinic", "lat": 1.8264989, "lon": 103.3053627, "osm_id": "way/841593168"}}, {"type": "Feature", "geometry": {"type": "Point", "coordinates": [103.2651515, 1.8299035]}, "properties": {"name": "Klinik Desa Kg. Sg. Linau", "amenity": "clinic", "lat": 1.8299035, "lon": 103.2651515, "osm_id": "way/841593178"}}, {"type": "Feature", "geometry": {"type": "Point", "coordinates": [103.144358, 1.7757502]}, "properties": {"name": "Klinik Desa Simpang Enam", "amenity": "clinic", "lat": 1.7757502, "lon": 103.144358, "osm_id": "way/845595685"}}, {"type": "Feature", "geometry": {"type": "Point", "coordinates": [103.1836746, 1.6657187]}, "properties": {"name": "Klinik Desa Sungai Merlong", "amenity": "clinic", "lat": 1.6657187, "lon": 103.1836746, "osm_id": "way/847403807"}}, {"type": "Feature", "geometry": {"type": "Point", "coordinates": [103.1262773, 1.7213055]}, "properties": {"name": "Klinik Desa Perpat", "amenity": "clinic", "lat": 1.7213055, "lon": 103.1262773, "osm_id": "way/848724888"}}, {"type": "Feature", "geometry": {"type": "Point", "coordinates": [103.1888137, 1.7335412]}, "properties": {"name": "Klinik Kesihatan Sri Merlong", "amenity": "clinic", "lat": 1.7335412, "lon": 103.1888137, "osm_id": "way/848724899"}}, {"type": "Feature", "geometry": {"type": "Point", "coordinates": [104.2475727, 1.3725208]}, "properties": {"name": "Klinik Desa Teluk Ramunia", "amenity": "clinic", "lat": 1.3725208, "lon": 104.2475727, "osm_id": "way/848795383"}}, {"type": "Feature", "geometry": {"type": "Point", "coordinates": [102.8810504, 1.9772023]}, "properties": {"name": "Klinik Kesihatan Parit Sulong", "amenity": "clinic", "lat": 1.9772023, "lon": 102.8810504, "osm_id": "way/856290121"}}, {"type": "Feature", "geometry": {"type": "Point", "coordinates": [102.576744, 2.0563939]}, "properties": {"name": "Hospital Pakar Sultanah Fatimah", "amenity": "hospital", "lat": 2.0563939, "lon": 102.576744, "osm_id": "way/857108687"}}, {"type": "Feature", "geometry": {"type": "Point", "coordinates": [102.5456868, 2.2750754]}, "properties": {"name": "Klinik Kesihatan Payamas", "amenity": "clinic", "lat": 2.2750754, "lon": 102.5456868, "osm_id": "way/857150503"}}, {"type": "Feature", "geometry": {"type": "Point", "coordinates": [102.5476395, 2.27154]}, "properties": {"name": "Poliklinik", "amenity": "clinic", "lat": 2.27154, "lon": 102.5476395, "osm_id": "way/857169149"}}, {"type": "Feature", "geometry": {"type": "Point", "coordinates": [102.5470574, 2.2713347]}, "properties": {"name": "Klinik Pergigian", "amenity": "clinic", "lat": 2.2713347, "lon": 102.5470574, "osm_id": "way/857169164"}}, {"type": "Feature", "geometry": {"type": "Point", "coordinates": [102.6035756, 2.1434787]}, "properties": {"name": "Klinik Desa", "amenity": "clinic", "lat": 2.1434787, "lon": 102.6035756, "osm_id": "way/865557113"}}, {"type": "Feature", "geometry": {"type": "Point", "coordinates": [103.6465763, 1.487145]}, "properties": {"name": null, "amenity": "clinic", "lat": 1.487145, "lon": 103.6465763, "osm_id": "way/877462172"}}, {"type": "Feature", "geometry": {"type": "Point", "coordinates": [103.8985641, 1.7356729]}, "properties": {"name": "Hospital Kota Tinggi", "amenity": "hospital", "lat": 1.7356729, "lon": 103.8985641, "osm_id": "way/885767892"}}, {"type": "Feature", "geometry": {"type": "Point", "coordinates": [103.742193, 1.4904604]}, "properties": {"name": "KPJ Puteri Specialist Hospital", "amenity": "hospital", "lat": 1.4904604, "lon": 103.742193, "osm_id": "way/894512965"}}, {"type": "Feature", "geometry": {"type": "Point", "coordinates": [103.3006903, 1.6293723]}, "properties": {"name": "Klinik Desa Sanglang", "amenity": "clinic", "lat": 1.6293723, "lon": 103.3006903, "osm_id": "way/904089338"}}, {"type": "Feature", "geometry": {"type": "Point", "coordinates": [103.3314826, 1.5923723]}, "properties": {"name": "Klinik Kesihatan Ayer Baloi", "amenity": "clinic", "lat": 1.5923723, "lon": 103.3314826, "osm_id": "way/904089349"}}, {"type": "Feature", "geometry": {"type": "Point", "coordinates": [103.3668823, 1.5375683]}, "properties": {"name": "Klinik Desa Pt. Hj. Omar Pontian", "amenity": "clinic", "lat": 1.5375683, "lon": 103.3668823, "osm_id": "way/904640551"}}, {"type": "Feature", "geometry": {"type": "Point", "coordinates": [103.3860014, 1.4989006]}, "properties": {"name": "Hospital Pontian", "amenity": "hospital", "lat": 1.4989006, "lon": 103.3860014, "osm_id": "way/904640559"}}, {"type": "Feature", "geometry": {"type": "Point", "coordinates": [103.0267908, 1.9581296]}, "properties": {"name": "Klinik Kesihatan Parit Yaani", "amenity": "clinic", "lat": 1.9581296, "lon": 103.0267908, "osm_id": "way/905349909"}}, {"type": "Feature", "geometry": {"type": "Point", "coordinates": [102.90505, 1.8495966]}, "properties": {"name": "Klinik Desa Peserai", "amenity": "clinic", "lat": 1.8495966, "lon": 102.90505, "osm_id": "way/907684298"}}, {"type": "Feature", "geometry": {"type": "Point", "coordinates": [102.8553102, 1.8488101]}, "properties": {"name": "Klinik Kesihatan Bagan", "amenity": "clinic", "lat": 1.8488101, "lon": 102.8553102, "osm_id": "way/908972754"}}, {"type": "Feature", "geometry": {"type": "Point", "coordinates": [102.8143288, 1.8649335]}, "properties": {"name": "Klinik Desa Parit Kuda", "amenity": "clinic", "lat": 1.8649335, "lon": 102.8143288, "osm_id": "way/908972763"}}, {"type": "Feature", "geometry": {"type": "Point", "coordinates": [102.7848994, 1.8816118]}, "properties": {"name": "Klinik Kesihatan Semerah", "amenity": "clinic", "lat": 1.8816118, "lon": 102.7848994, "osm_id": "way/908972775"}}, {"type": "Feature", "geometry": {"type": "Point", "coordinates": [102.7599134, 1.8960181]}, "properties": {"name": "Klinik Kesihatan Parit Yusof", "amenity": "clinic", "lat": 1.8960181, "lon": 102.7599134, "osm_id": "way/910767537"}}, {"type": "Feature", "geometry": {"type": "Point", "coordinates": [102.6875601, 1.9099902]}, "properties": {"name": "Klinik Kesihatan Sri Menanti", "amenity": "clinic", "lat": 1.9099902, "lon": 102.6875601, "osm_id": "way/910767559"}}, {"type": "Feature", "geometry": {"type": "Point", "coordinates": [102.6726742, 1.9263673]}, "properties": {"name": "Klinik Desa Parit Pechah", "amenity": "clinic", "lat": 1.9263673, "lon": 102.6726742, "osm_id": "way/913129025"}}, {"type": "Feature", "geometry": {"type": "Point", "coordinates": [102.6090222, 1.9999799]}, "properties": {"name": "Klinik Kesihatan Parit Bakar", "amenity": "clinic", "lat": 1.9999799, "lon": 102.6090222, "osm_id": "way/913129042"}}, {"type": "Feature", "geometry": {"type": "Point", "coordinates": [102.5068653, 2.1185167]}, "properties": {"name": "Klinik Desa Kesang", "amenity": "clinic", "lat": 2.1185167, "lon": 102.5068653, "osm_id": "way/913802191"}}, {"type": "Feature", "geometry": {"type": "Point", "coordinates": [103.8607863, 1.5140537]}, "properties": {"name": "Hospital Pasir Gudang", "amenity": "hospital", "lat": 1.5140537, "lon": 103.8607863, "osm_id": "way/913854434"}}, {"type": "Feature", "geometry": {"type": "Point", "coordinates": [103.4327627, 1.6888231]}, "properties": {"name": "Klinik Ladang Kuala Kabong", "amenity": "clinic", "lat": 1.6888231, "lon": 103.4327627, "osm_id": "way/945360099"}}, {"type": "Feature", "geometry": {"type": "Point", "coordinates": [103.1078998, 1.7551662]}, "properties": {"name": "Klinik Desa Parit Kemang", "amenity": "clinic", "lat": 1.7551662, "lon": 103.1078998, "osm_id": "way/950133268"}}, {"type": "Feature", "geometry": {"type": "Point", "coordinates": [103.2293921, 1.6512322]}, "properties": {"name": "Klinik Desa Parit Abdul Rahman", "amenity": "clinic", "lat": 1.6512322, "lon": 103.2293921, "osm_id": "way/951361828"}}, {"type": "Feature", "geometry": {"type": "Point", "coordinates": [103.6239091, 2.6494006]}, "properties": {"name": "Klinik Kesihatan Endau", "amenity": "clinic", "lat": 2.6494006, "lon": 103.6239091, "osm_id": "way/955842726"}}, {"type": "Feature", "geometry": {"type": "Point", "coordinates": [103.8136469, 2.4720168]}, "properties": {"name": "Klinik Desa Kampung Sawah Dato'", "amenity": "clinic", "lat": 2.4720168, "lon": 103.8136469, "osm_id": "way/956986581"}}, {"type": "Feature", "geometry": {"type": "Point", "coordinates": [103.1095692, 1.8629686]}, "properties": {"name": "Klinik Kesihatan Parit Raja", "amenity": "clinic", "lat": 1.8629686, "lon": 103.1095692, "osm_id": "way/966988395"}}, {"type": "Feature", "geometry": {"type": "Point", "coordinates": [103.8013926, 2.4943896]}, "properties": {"name": "Klinik Kesihatan Tenglu", "amenity": "clinic", "lat": 2.4943896, "lon": 103.8013926, "osm_id": "way/967521082"}}, {"type": "Feature", "geometry": {"type": "Point", "coordinates": [103.0231381, 1.8987756]}, "properties": {"name": "Klinik Desa Parit Yob", "amenity": "clinic", "lat": 1.8987756, "lon": 103.0231381, "osm_id": "way/969784308"}}, {"type": "Feature", "geometry": {"type": "Point", "coordinates": [103.3931045, 1.7889177]}, "properties": {"name": "Klinik Desa Felda Layang-Layang", "amenity": "clinic", "lat": 1.7889177, "lon": 103.3931045, "osm_id": "way/1035563235"}}, {"type": "Feature", "geometry": {"type": "Point", "coordinates": [102.6004951, 2.0360684]}, "properties": {"name": null, "amenity": "clinic", "lat": 2.0360684, "lon": 102.6004951, "osm_id": "way/1036001928"}}, {"type": "Feature", "geometry": {"type": "Point", "coordinates": [103.7580227, 1.5359724]}, "properties": {"name": "Klinik Desa Kangkar Tebrau", "amenity": "clinic", "lat": 1.5359724, "lon": 103.7580227, "osm_id": "way/1036323046"}}, {"type": "Feature", "geometry": {"type": "Point", "coordinates": [103.0186643, 2.3851796]}, "properties": {"name": "Klinik Kesihatan Labis", "amenity": "clinic", "lat": 2.3851796, "lon": 103.0186643, "osm_id": "way/1036631295"}}, {"type": "Feature", "geometry": {"type": "Point", "coordinates": [103.8343032, 2.4367753]}, "properties": {"name": "Klinik Kesihatan Mersing Kanan", "amenity": "clinic", "lat": 2.4367753, "lon": 103.8343032, "osm_id": "way/1037766478"}}, {"type": "Feature", "geometry": {"type": "Point", "coordinates": [103.3067711, 1.7706958]}, "properties": {"name": "Klinik Desa Parit Ibrahim Majid", "amenity": "clinic", "lat": 1.7706958, "lon": 103.3067711, "osm_id": "way/1038994046"}}, {"type": "Feature", "geometry": {"type": "Point", "coordinates": [103.2745731, 2.0135183]}, "properties": {"name": "KPJ Kluang Specialist Hospital", "amenity": "hospital", "lat": 2.0135183, "lon": 103.2745731, "osm_id": "way/1043498058"}}, {"type": "Feature", "geometry": {"type": "Point", "coordinates": [102.6115358, 2.303197]}, "properties": {"name": "Klinik Kesihatan Sagil", "amenity": "clinic", "lat": 2.303197, "lon": 102.6115358, "osm_id": "way/1043669238"}}, {"type": "Feature", "geometry": {"type": "Point", "coordinates": [102.6491329, 2.0514971]}, "properties": {"name": "Klinik Kesihatan Bakri", "amenity": "clinic", "lat": 2.0514971, "lon": 102.6491329, "osm_id": "way/1057739052"}}, {"type": "Feature", "geometry": {"type": "Point", "coordinates": [103.0376881, 2.3538144]}, "properties": {"name": "Klinik Desa Sungai Karas", "amenity": "clinic", "lat": 2.3538144, "lon": 103.0376881, "osm_id": "way/1057740073"}}, {"type": "Feature", "geometry": {"type": "Point", "coordinates": [103.7104487, 1.4938202]}, "properties": {"name": "Klinik Medcare Bandar Baru Uda", "amenity": "clinic", "lat": 1.4938202, "lon": 103.7104487, "osm_id": "way/1071799095"}}, {"type": "Feature", "geometry": {"type": "Point", "coordinates": [102.8848195, 2.0284172]}, "properties": {"name": "Klinik Desa", "amenity": "clinic", "lat": 2.0284172, "lon": 102.8848195, "osm_id": "way/1079013498"}}, {"type": "Feature", "geometry": {"type": "Point", "coordinates": [104.2332682, 1.5522888]}, "properties": {"name": "Klinik Kesihatan Bandar Penawar", "amenity": "hospital", "lat": 1.5522888, "lon": 104.2332682, "osm_id": "way/1079986154"}}, {"type": "Feature", "geometry": {"type": "Point", "coordinates": [103.3214157, 2.0070654]}, "properties": {"name": null, "amenity": "clinic", "lat": 2.0070654, "lon": 103.3214157, "osm_id": "way/1148276843"}}, {"type": "Feature", "geometry": {"type": "Point", "coordinates": [102.6552205, 2.2125816]}, "properties": {"name": null, "amenity": "hospital", "lat": 2.2125816, "lon": 102.6552205, "osm_id": "way/1148402839"}}, {"type": "Feature", "geometry": {"type": "Point", "coordinates": [103.8725415, 1.4980236]}, "properties": {"name": "Regency Specialist Hospital Sdn Bhd", "amenity": "hospital", "lat": 1.4980236, "lon": 103.8725415, "osm_id": "way/1150195056"}}, {"type": "Feature", "geometry": {"type": "Point", "coordinates": [103.6368457, 1.4789628]}, "properties": {"name": "Columbia Asia Hospital Iskandar Puteri", "amenity": "hospital", "lat": 1.4789628, "lon": 103.6368457, "osm_id": "way/1150528106"}}, {"type": "Feature", "geometry": {"type": "Point", "coordinates": [102.5767154, 2.0581172]}, "properties": {"name": "Klinik Kesihatan Bandar Maharani", "amenity": "clinic", "lat": 2.0581172, "lon": 102.5767154, "osm_id": "way/1151591298"}}, {"type": "Feature", "geometry": {"type": "Point", "coordinates": [102.6422324, 1.9611278]}, "properties": {"name": "Klinik Desa Parit Jawa", "amenity": "clinic", "lat": 1.9611278, "lon": 102.6422324, "osm_id": "way/1151591386"}}, {"type": "Feature", "geometry": {"type": "Point", "coordinates": [102.5496476, 2.1796575]}, "properties": {"name": null, "amenity": "clinic", "lat": 2.1796575, "lon": 102.5496476, "osm_id": "way/1177756814"}}, {"type": "Feature", "geometry": {"type": "Point", "coordinates": [103.7740426, 1.5662199]}, "properties": {"name": "Klinik Kesihatan Sultan Ismail Unit Ibu dan Anak", "amenity": "clinic", "lat": 1.5662199, "lon": 103.7740426, "osm_id": "way/1184662348"}}, {"type": "Feature", "geometry": {"type": "Point", "coordinates": [102.775114, 2.1511066]}, "properties": {"name": "Klinik Kesihatan Pagoh", "amenity": "clinic", "lat": 2.1511066, "lon": 102.775114, "osm_id": "way/1190234365"}}, {"type": "Feature", "geometry": {"type": "Point", "coordinates": [102.6563305, 2.2127648]}, "properties": {"name": null, "amenity": "hospital", "lat": 2.2127648, "lon": 102.6563305, "osm_id": "way/1199387753"}}, {"type": "Feature", "geometry": {"type": "Point", "coordinates": [103.7969157, 1.5336616]}, "properties": {"name": "JB Specialist Hospital", "amenity": "hospital", "lat": 1.5336616, "lon": 103.7969157, "osm_id": "way/1214317865"}}, {"type": "Feature", "geometry": {"type": "Point", "coordinates": [103.7687907, 1.5409414]}, "properties": {"name": "Pusat Pakar Bersalin Tebrau", "amenity": "hospital", "lat": 1.5409414, "lon": 103.7687907, "osm_id": "way/1252110642"}}, {"type": "Feature", "geometry": {"type": "Point", "coordinates": [102.8136757, 2.5039163]}, "properties": {"name": null, "amenity": "clinic", "lat": 2.5039163, "lon": 102.8136757, "osm_id": "way/1293387818"}}, {"type": "Feature", "geometry": {"type": "Point", "coordinates": [103.4421569, 1.3793871]}, "properties": {"name": "Klinik Kesihatan Penerok", "amenity": "clinic", "lat": 1.3793871, "lon": 103.4421569, "osm_id": "way/1312833086"}}, {"type": "Feature", "geometry": {"type": "Point", "coordinates": [103.8583577, 2.392442]}, "properties": {"name": "Klinik Desa Seri Pantai", "amenity": "clinic", "lat": 2.392442, "lon": 103.8583577, "osm_id": "way/1355946241"}}, {"type": "Feature", "geometry": {"type": "Point", "coordinates": [103.8547851, 2.268087]}, "properties": {"name": "Klinik Kesihatan Jemaluang", "amenity": "clinic", "lat": 2.268087, "lon": 103.8547851, "osm_id": "way/1355947155"}}, {"type": "Feature", "geometry": {"type": "Point", "coordinates": [103.6889154, 1.5339993]}, "properties": {"name": "Poliklinik Taman Anggerik", "amenity": "hospital", "lat": 1.5339993, "lon": 103.6889154, "osm_id": "way/1359266791"}}, {"type": "Feature", "geometry": {"type": "Point", "coordinates": [103.9005025, 1.4835836]}, "properties": {"name": "Klinik Medcare Taman Bukit Dahlia", "amenity": "clinic", "lat": 1.4835836, "lon": 103.9005025, "osm_id": "way/1498958937"}}, {"type": "Feature", "geometry": {"type": "Point", "coordinates": [103.9374285, 1.4847554]}, "properties": {"name": "Klinik Medcare Kota Masai", "amenity": "clinic", "lat": 1.4847554, "lon": 103.9374285, "osm_id": "way/1498959790"}}, {"type": "Feature", "geometry": {"type": "Point", "coordinates": [103.0567458, 2.029769]}, "properties": {"name": "Klinik Kesihatan Yong Peng", "amenity": "clinic", "lat": 2.029769, "lon": 103.0567458, "osm_id": "way/1537750950"}}, {"type": "Feature", "geometry": {"type": "Point", "coordinates": [103.6490333, 1.4438179]}, "properties": {"name": "Health Center", "amenity": "clinic", "lat": 1.4438179, "lon": 103.6490333, "osm_id": "way/1550338453"}}, {"type": "Feature", "geometry": {"type": "Point", "coordinates": [103.7072284, 1.507648]}, "properties": {"name": "Klinik Kesihatan Kempas", "amenity": "clinic", "lat": 1.507648, "lon": 103.7072284, "osm_id": "node/1813344467"}}, {"type": "Feature", "geometry": {"type": "Point", "coordinates": [103.7908108, 1.495741]}, "properties": {"name": "Klinik 1Malaysia", "amenity": "clinic", "lat": 1.495741, "lon": 103.7908108, "osm_id": "node/2758361011"}}, {"type": "Feature", "geometry": {"type": "Point", "coordinates": [104.2219378, 1.3504043]}, "properties": {"name": "Klinik Penawar", "amenity": "clinic", "lat": 1.3504043, "lon": 104.2219378, "osm_id": "node/4101514689"}}, {"type": "Feature", "geometry": {"type": "Point", "coordinates": [104.2235873, 1.3503589]}, "properties": {"name": "Klinik Rafeeq & Nurul", "amenity": "clinic", "lat": 1.3503589, "lon": 104.2235873, "osm_id": "node/4101542891"}}, {"type": "Feature", "geometry": {"type": "Point", "coordinates": [103.900891, 1.7304049]}, "properties": {"name": null, "amenity": "clinic", "lat": 1.7304049, "lon": 103.900891, "osm_id": "node/4142137389"}}, {"type": "Feature", "geometry": {"type": "Point", "coordinates": [103.835946, 2.4312819]}, "properties": {"name": "Klinik ilIshsan", "amenity": "doctors", "lat": 2.4312819, "lon": 103.835946, "osm_id": "node/4171574226"}}, {"type": "Feature", "geometry": {"type": "Point", "coordinates": [103.6571472, 1.4806154]}, "properties": {"name": "Indah Specialist Eye Centre", "amenity": "clinic", "lat": 1.4806154, "lon": 103.6571472, "osm_id": "node/4197417754"}}, {"type": "Feature", "geometry": {"type": "Point", "coordinates": [103.3887667, 1.4801079]}, "properties": {"name": "Klinik Malaysia", "amenity": "doctors", "lat": 1.4801079, "lon": 103.3887667, "osm_id": "node/4202433265"}}, {"type": "Feature", "geometry": {"type": "Point", "coordinates": [103.3891282, 1.4790964]}, "properties": {"name": "Klinik Permata", "amenity": "doctors", "lat": 1.4790964, "lon": 103.3891282, "osm_id": "node/4202437823"}}, {"type": "Feature", "geometry": {"type": "Point", "coordinates": [103.3883825, 1.4788015]}, "properties": {"name": "Klink Fitrah", "amenity": "doctors", "lat": 1.4788015, "lon": 103.3883825, "osm_id": "node/4202454206"}}, {"type": "Feature", "geometry": {"type": "Point", "coordinates": [103.0189585, 2.3974889]}, "properties": {"name": "Clinic Khoo", "amenity": "clinic", "lat": 2.3974889, "lon": 103.0189585, "osm_id": "node/4238951590"}}, {"type": "Feature", "geometry": {"type": "Point", "coordinates": [103.8159501, 1.5000711]}, "properties": {"name": "Clinic Koh & Surgery", "amenity": "clinic", "lat": 1.5000711, "lon": 103.8159501, "osm_id": "node/4245782389"}}, {"type": "Feature", "geometry": {"type": "Point", "coordinates": [103.5993501, 1.6621506]}, "properties": {"name": "Klinik Adham", "amenity": "clinic", "lat": 1.6621506, "lon": 103.5993501, "osm_id": "node/4252272023"}}, {"type": "Feature", "geometry": {"type": "Point", "coordinates": [103.5929816, 1.4506067]}, "properties": {"name": "Poliklinik Gelang Patah", "amenity": "doctors", "lat": 1.4506067, "lon": 103.5929816, "osm_id": "node/4276051791"}}, {"type": "Feature", "geometry": {"type": "Point", "coordinates": [103.9023837, 1.4352563]}, "properties": {"name": "POLIKLINIK YUSNILA", "amenity": "clinic", "lat": 1.4352563, "lon": 103.9023837, "osm_id": "node/4312218190"}}, {"type": "Feature", "geometry": {"type": "Point", "coordinates": [103.7065981, 1.7681739]}, "properties": {"name": "Klinik Kesihatan Felda Bkt Besar", "amenity": "clinic", "lat": 1.7681739, "lon": 103.7065981, "osm_id": "node/4317950190"}}, {"type": "Feature", "geometry": {"type": "Point", "coordinates": [103.7043969, 1.5223941]}, "properties": {"name": "Hospital Permai Johor Bahru", "amenity": "hospital", "lat": 1.5223941, "lon": 103.7043969, "osm_id": "node/4319761193"}}, {"type": "Feature", "geometry": {"type": "Point", "coordinates": [103.6886816, 1.5342045]}, "properties": {"name": "Poliklinik Taman Anggerik", "amenity": "clinic", "lat": 1.5342045, "lon": 103.6886816, "osm_id": "node/4341999411"}}, {"type": "Feature", "geometry": {"type": "Point", "coordinates": [103.6665878, 1.4816748]}, "properties": {"name": "Klinik Johor", "amenity": "doctors", "lat": 1.4816748, "lon": 103.6665878, "osm_id": "node/4349750490"}}, {"type": "Feature", "geometry": {"type": "Point", "coordinates": [103.6694554, 1.4976301]}, "properties": {"name": "Klinik Salina", "amenity": "doctors", "lat": 1.4976301, "lon": 103.6694554, "osm_id": "node/4374478696"}}, {"type": "Feature", "geometry": {"type": "Point", "coordinates": [103.6586638, 1.4929317]}, "properties": {"name": "Pusat Pakar Sakitpuan Dan Perbidanan Khor & Loh", "amenity": "doctors", "lat": 1.4929317, "lon": 103.6586638, "osm_id": "node/4375697816"}}, {"type": "Feature", "geometry": {"type": "Point", "coordinates": [103.6678036, 1.5312743]}, "properties": {"name": "Klinic Asia", "amenity": "clinic", "lat": 1.5312743, "lon": 103.6678036, "osm_id": "node/4402121789"}}, {"type": "Feature", "geometry": {"type": "Point", "coordinates": [103.1340353, 2.2978099]}, "properties": {"name": "Klinik Keshiatan Bekok", "amenity": "clinic", "lat": 2.2978099, "lon": 103.1340353, "osm_id": "node/4407696178"}}, {"type": "Feature", "geometry": {"type": "Point", "coordinates": [103.5844636, 1.4585187]}, "properties": {"name": "Teo TCM", "amenity": "clinic", "lat": 1.4585187, "lon": 103.5844636, "osm_id": "node/4438691689"}}, {"type": "Feature", "geometry": {"type": "Point", "coordinates": [103.8043263, 1.5426049]}, "properties": {"name": "Theesan Clinic", "amenity": "clinic", "lat": 1.5426049, "lon": 103.8043263, "osm_id": "node/4722095889"}}, {"type": "Feature", "geometry": {"type": "Point", "coordinates": [103.7600365, 1.4863775]}, "properties": {"name": "Klinik Theesan", "amenity": "clinic", "lat": 1.4863775, "lon": 103.7600365, "osm_id": "node/4723499590"}}, {"type": "Feature", "geometry": {"type": "Point", "coordinates": [103.6631933, 1.6356394]}, "properties": {"name": "Poliklinik Penawar", "amenity": "clinic", "lat": 1.6356394, "lon": 103.6631933, "osm_id": "node/4891858023"}}, {"type": "Feature", "geometry": {"type": "Point", "coordinates": [103.6597209, 1.5187398]}, "properties": {"name": "klinik ong", "amenity": "clinic", "lat": 1.5187398, "lon": 103.6597209, "osm_id": "node/5093985522"}}, {"type": "Feature", "geometry": {"type": "Point", "coordinates": [103.9023981, 1.4353172]}, "properties": {"name": null, "amenity": "clinic", "lat": 1.4353172, "lon": 103.9023981, "osm_id": "node/5146470823"}}, {"type": "Feature", "geometry": {"type": "Point", "coordinates": [103.5883041, 1.5653447]}, "properties": {"name": "clinic salina", "amenity": "clinic", "lat": 1.5653447, "lon": 103.5883041, "osm_id": "node/5404737424"}}, {"type": "Feature", "geometry": {"type": "Point", "coordinates": [103.5889724, 1.5659655]}, "properties": {"name": "alam syifa", "amenity": "clinic", "lat": 1.5659655, "lon": 103.5889724, "osm_id": "node/5404754821"}}, {"type": "Feature", "geometry": {"type": "Point", "coordinates": [103.8658333, 2.0095769]}, "properties": {"name": "Klinik Desa Felcra Sungai Ara", "amenity": "clinic", "lat": 2.0095769, "lon": 103.8658333, "osm_id": "node/5423711843"}}, {"type": "Feature", "geometry": {"type": "Point", "coordinates": [103.3340543, 2.0377308]}, "properties": {"name": "Klinik Penawar", "amenity": "clinic", "lat": 2.0377308, "lon": 103.3340543, "osm_id": "node/5429356599"}}, {"type": "Feature", "geometry": {"type": "Point", "coordinates": [104.2603641, 1.5406716]}, "properties": {"name": "First Aid Room", "amenity": "clinic", "lat": 1.5406716, "lon": 104.2603641, "osm_id": "node/5572928377"}}, {"type": "Feature", "geometry": {"type": "Point", "coordinates": [104.261911, 1.5386392]}, "properties": {"name": "First Aid Room", "amenity": "clinic", "lat": 1.5386392, "lon": 104.261911, "osm_id": "node/5572928378"}}, {"type": "Feature", "geometry": {"type": "Point", "coordinates": [103.6792034, 1.5197102]}, "properties": {"name": "Poliklinik WeCare", "amenity": "clinic", "lat": 1.5197102, "lon": 103.6792034, "osm_id": "node/5584145734"}}, {"type": "Feature", "geometry": {"type": "Point", "coordinates": [103.6910861, 1.4546739]}, "properties": {"name": null, "amenity": "clinic", "lat": 1.4546739, "lon": 103.6910861, "osm_id": "node/5606457022"}}, {"type": "Feature", "geometry": {"type": "Point", "coordinates": [103.5926281, 1.4506881]}, "properties": {"name": "Poliklinik penawar", "amenity": "clinic", "lat": 1.4506881, "lon": 103.5926281, "osm_id": "node/5683600623"}}, {"type": "Feature", "geometry": {"type": "Point", "coordinates": [103.5950426, 1.450324]}, "properties": {"name": "Klinik Yethin GP", "amenity": "clinic", "lat": 1.450324, "lon": 103.5950426, "osm_id": "node/5683607921"}}, {"type": "Feature", "geometry": {"type": "Point", "coordinates": [103.6414413, 1.4740026]}, "properties": {"name": "Dr Shah Clinic", "amenity": "clinic", "lat": 1.4740026, "lon": 103.6414413, "osm_id": "node/5919868202"}}, {"type": "Feature", "geometry": {"type": "Point", "coordinates": [103.8366182, 2.4308053]}, "properties": {"name": "Clinic grace", "amenity": "clinic", "lat": 2.4308053, "lon": 103.8366182, "osm_id": "node/6021171985"}}, {"type": "Feature", "geometry": {"type": "Point", "coordinates": [102.5585166, 2.059495]}, "properties": {"name": "poliklinik keluarga", "amenity": "clinic", "lat": 2.059495, "lon": 102.5585166, "osm_id": "node/6036237985"}}, {"type": "Feature", "geometry": {"type": "Point", "coordinates": [102.5754, 2.0485694]}, "properties": {"name": "Klinik Ilham", "amenity": "clinic", "lat": 2.0485694, "lon": 102.5754, "osm_id": "node/6036276286"}}, {"type": "Feature", "geometry": {"type": "Point", "coordinates": [102.6446908, 1.9576231]}, "properties": {"name": "klinik parit jawa", "amenity": "clinic", "lat": 1.9576231, "lon": 102.6446908, "osm_id": "node/6038536787"}}, {"type": "Feature", "geometry": {"type": "Point", "coordinates": [102.7671097, 1.8918785]}, "properties": {"name": "Klinik Desa Sarang Buaya", "amenity": "clinic", "lat": 1.8918785, "lon": 102.7671097, "osm_id": "node/6038600188"}}, {"type": "Feature", "geometry": {"type": "Point", "coordinates": [102.9513023, 1.8422914]}, "properties": {"name": "klinik perdana", "amenity": "clinic", "lat": 1.8422914, "lon": 102.9513023, "osm_id": "node/6038937287"}}, {"type": "Feature", "geometry": {"type": "Point", "coordinates": [102.9507505, 1.8426831]}, "properties": {"name": "first spinal care and physiotherapy", "amenity": "clinic", "lat": 1.8426831, "lon": 102.9507505, "osm_id": "node/6038983687"}}, {"type": "Feature", "geometry": {"type": "Point", "coordinates": [102.9534187, 1.8629127]}, "properties": {"name": "Klinik L' Medina", "amenity": "clinic", "lat": 1.8629127, "lon": 102.9534187, "osm_id": "node/6040722089"}}, {"type": "Feature", "geometry": {"type": "Point", "coordinates": [103.0223237, 1.8541588]}, "properties": {"name": "Klinik Sinar", "amenity": "clinic", "lat": 1.8541588, "lon": 103.0223237, "osm_id": "node/6040748386"}}, {"type": "Feature", "geometry": {"type": "Point", "coordinates": [103.3027041, 2.0198504]}, "properties": {"name": "Klinik 1 Malaysia", "amenity": "clinic", "lat": 2.0198504, "lon": 103.3027041, "osm_id": "node/6040813087"}}, {"type": "Feature", "geometry": {"type": "Point", "coordinates": [103.3029225, 2.0190486]}, "properties": {"name": "Poliklinik Intan", "amenity": "clinic", "lat": 2.0190486, "lon": 103.3029225, "osm_id": "node/6040813088"}}, {"type": "Feature", "geometry": {"type": "Point", "coordinates": [103.7577021, 1.5767397]}, "properties": {"name": "Harvin & Adeline Polyclinic", "amenity": "clinic", "lat": 1.5767397, "lon": 103.7577021, "osm_id": "node/6124580386"}}, {"type": "Feature", "geometry": {"type": "Point", "coordinates": [103.6507783, 1.4770271]}, "properties": {"name": "lai and surgery", "amenity": "clinic", "lat": 1.4770271, "lon": 103.6507783, "osm_id": "node/6189698487"}}, {"type": "Feature", "geometry": {"type": "Point", "coordinates": [103.9052279, 1.4870392]}, "properties": {"name": "klinik 1malaysia taman cendana", "amenity": "clinic", "lat": 1.4870392, "lon": 103.9052279, "osm_id": "node/6243444685"}}, {"type": "Feature", "geometry": {"type": "Point", "coordinates": [103.63633, 1.5221169]}, "properties": {"name": "Rinicare Health Clinic", "amenity": "clinic", "lat": 1.5221169, "lon": 103.63633, "osm_id": "node/6251561779"}}, {"type": "Feature", "geometry": {"type": "Point", "coordinates": [103.9051737, 1.4870378]}, "properties": {"name": "Klinik 1 Malaysia Taman Cendana", "amenity": "clinic", "lat": 1.4870378, "lon": 103.9051737, "osm_id": "node/6283938185"}}, {"type": "Feature", "geometry": {"type": "Point", "coordinates": [103.8834889, 1.4878947]}, "properties": {"name": "Klinik Pergigian Masai", "amenity": "clinic", "lat": 1.4878947, "lon": 103.8834889, "osm_id": "node/6298873487"}}, {"type": "Feature", "geometry": {"type": "Point", "coordinates": [103.6439923, 1.4582825]}, "properties": {"name": "Poliklinik horizon family", "amenity": "clinic", "lat": 1.4582825, "lon": 103.6439923, "osm_id": "node/6328251886"}}, {"type": "Feature", "geometry": {"type": "Point", "coordinates": [103.5838425, 1.4599236]}, "properties": {"name": "Poliklinik pekan nanas", "amenity": "clinic", "lat": 1.4599236, "lon": 103.5838425, "osm_id": "node/6396145986"}}, {"type": "Feature", "geometry": {"type": "Point", "coordinates": [103.8804503, 1.58534]}, "properties": {"name": "Klinik Desa Sungai Tiram", "amenity": "clinic", "lat": 1.58534, "lon": 103.8804503, "osm_id": "node/6424655269"}}, {"type": "Feature", "geometry": {"type": "Point", "coordinates": [103.426321, 1.412454]}, "properties": {"name": "Klinik Desa Teluk Kerang", "amenity": "clinic", "lat": 1.412454, "lon": 103.426321, "osm_id": "node/6432103129"}}, {"type": "Feature", "geometry": {"type": "Point", "coordinates": [103.8191465, 1.6003344]}, "properties": {"name": "poliklinik not arasiah", "amenity": "clinic", "lat": 1.6003344, "lon": 103.8191465, "osm_id": "node/6481925585"}}, {"type": "Feature", "geometry": {"type": "Point", "coordinates": [103.9049269, 1.7337825]}, "properties": {"name": null, "amenity": "clinic", "lat": 1.7337825, "lon": 103.9049269, "osm_id": "node/6482416591"}}, {"type": "Feature", "geometry": {"type": "Point", "coordinates": [102.5658651, 2.044384]}, "properties": {"name": "Tey Specialist Maternity & Gynae", "amenity": "doctors", "lat": 2.044384, "lon": 102.5658651, "osm_id": "node/6572413684"}}, {"type": "Feature", "geometry": {"type": "Point", "coordinates": [103.613771, 1.5644183]}, "properties": {"name": "klinik keluarga", "amenity": "clinic", "lat": 1.5644183, "lon": 103.613771, "osm_id": "node/6577894885"}}, {"type": "Feature", "geometry": {"type": "Point", "coordinates": [103.3521866, 2.0531061]}, "properties": {"name": null, "amenity": "clinic", "lat": 2.0531061, "lon": 103.3521866, "osm_id": "node/6595361785"}}, {"type": "Feature", "geometry": {"type": "Point", "coordinates": [103.3207747, 2.033059]}, "properties": {"name": null, "amenity": "clinic", "lat": 2.033059, "lon": 103.3207747, "osm_id": "node/6603199285"}}, {"type": "Feature", "geometry": {"type": "Point", "coordinates": [103.763189, 1.4805663]}, "properties": {"name": "Century Orthopaedic Specialist Clinic", "amenity": "hospital", "lat": 1.4805663, "lon": 103.763189, "osm_id": "node/6724595475"}}, {"type": "Feature", "geometry": {"type": "Point", "coordinates": [102.5851382, 2.0500165]}, "properties": {"name": "Klinik Kesihatan Kampung Kenangan", "amenity": "clinic", "lat": 2.0500165, "lon": 102.5851382, "osm_id": "node/6871838628"}}, {"type": "Feature", "geometry": {"type": "Point", "coordinates": [103.6290241, 1.5447964]}, "properties": {"name": "Perdana Specialist Maternity Centre", "amenity": "clinic", "lat": 1.5447964, "lon": 103.6290241, "osm_id": "node/7265306732"}}, {"type": "Feature", "geometry": {"type": "Point", "coordinates": [102.9538441, 1.843135]}, "properties": {"name": "Klinik Pakar Kanak Kanak Allen", "amenity": "doctors", "lat": 1.843135, "lon": 102.9538441, "osm_id": "node/7266765845"}}, {"type": "Feature", "geometry": {"type": "Point", "coordinates": [102.9504284, 1.8419766]}, "properties": {"name": "Klinik Pakar Sakit Puan & Ibu Mengandung Kartik", "amenity": "doctors", "lat": 1.8419766, "lon": 102.9504284, "osm_id": "node/7266765873"}}, {"type": "Feature", "geometry": {"type": "Point", "coordinates": [102.9500365, 1.8418389]}, "properties": {"name": "Klinik Taita", "amenity": "clinic", "lat": 1.8418389, "lon": 102.9500365, "osm_id": "node/7266765880"}}, {"type": "Feature", "geometry": {"type": "Point", "coordinates": [103.9350699, 1.5239177]}, "properties": {"name": "Klinik Kesihatan Cahaya Baru", "amenity": "clinic", "lat": 1.5239177, "lon": 103.9350699, "osm_id": "node/7273720887"}}, {"type": "Feature", "geometry": {"type": "Point", "coordinates": [103.6312099, 1.5410715]}, "properties": {"name": "Perubatan Cina Lim Han Lin", "amenity": "clinic", "lat": 1.5410715, "lon": 103.6312099, "osm_id": "node/7274360403"}}, {"type": "Feature", "geometry": {"type": "Point", "coordinates": [103.3117216, 1.826291]}, "properties": {"name": "Poliklinik Penawar", "amenity": "clinic", "lat": 1.826291, "lon": 103.3117216, "osm_id": "node/7280244202"}}, {"type": "Feature", "geometry": {"type": "Point", "coordinates": [103.3108926, 1.8260386]}, "properties": {"name": "Klinik Bakti Simpang Renggam", "amenity": "clinic", "lat": 1.8260386, "lon": 103.3108926, "osm_id": "node/7283906589"}}, {"type": "Feature", "geometry": {"type": "Point", "coordinates": [103.3091304, 1.8309525]}, "properties": {"name": "Klinik Lee", "amenity": "clinic", "lat": 1.8309525, "lon": 103.3091304, "osm_id": "node/7283906599"}}, {"type": "Feature", "geometry": {"type": "Point", "coordinates": [103.3105726, 1.826332]}, "properties": {"name": "Klinik Rafeah", "amenity": "clinic", "lat": 1.826332, "lon": 103.3105726, "osm_id": "node/7284027639"}}, {"type": "Feature", "geometry": {"type": "Point", "coordinates": [103.3096144, 1.8270988]}, "properties": {"name": "Klinik Doktor Gigi Yang", "amenity": "clinic", "lat": 1.8270988, "lon": 103.3096144, "osm_id": "node/7284027646"}}, {"type": "Feature", "geometry": {"type": "Point", "coordinates": [103.7109523, 1.5449014]}, "properties": {"name": "Klinik Famili", "amenity": "clinic", "lat": 1.5449014, "lon": 103.7109523, "osm_id": "node/7417194270"}}, {"type": "Feature", "geometry": {"type": "Point", "coordinates": [103.7113261, 1.5443334]}, "properties": {"name": "Klinik Shakthi & Surgeri", "amenity": "clinic", "lat": 1.5443334, "lon": 103.7113261, "osm_id": "node/7417194276"}}, {"type": "Feature", "geometry": {"type": "Point", "coordinates": [103.7108526, 1.5426348]}, "properties": {"name": "Klinik Raihan", "amenity": "clinic", "lat": 1.5426348, "lon": 103.7108526, "osm_id": "node/7417262416"}}, {"type": "Feature", "geometry": {"type": "Point", "coordinates": [103.7132015, 1.5454996]}, "properties": {"name": "Klinik Lai", "amenity": "clinic", "lat": 1.5454996, "lon": 103.7132015, "osm_id": "node/7417319890"}}, {"type": "Feature", "geometry": {"type": "Point", "coordinates": [103.7384354, 1.5576991]}, "properties": {"name": "Klinik Tan", "amenity": "clinic", "lat": 1.5576991, "lon": 103.7384354, "osm_id": "node/7432913791"}}, {"type": "Feature", "geometry": {"type": "Point", "coordinates": [103.7447574, 1.5707888]}, "properties": {"name": "Klinik Azreen", "amenity": "clinic", "lat": 1.5707888, "lon": 103.7447574, "osm_id": "node/7432914997"}}, {"type": "Feature", "geometry": {"type": "Point", "coordinates": [103.744285, 1.5704206]}, "properties": {"name": "Klinik Johor", "amenity": "clinic", "lat": 1.5704206, "lon": 103.744285, "osm_id": "node/7432915003"}}, {"type": "Feature", "geometry": {"type": "Point", "coordinates": [103.6682325, 1.5144741]}, "properties": {"name": "Pusat Perubatan Teen Yi", "amenity": "clinic", "lat": 1.5144741, "lon": 103.6682325, "osm_id": "node/7553890351"}}, {"type": "Feature", "geometry": {"type": "Point", "coordinates": [103.6705822, 1.5155422]}, "properties": {"name": "Poliklinik Permai Polyclinics", "amenity": "clinic", "lat": 1.5155422, "lon": 103.6705822, "osm_id": "node/7553897802"}}, {"type": "Feature", "geometry": {"type": "Point", "coordinates": [103.670008, 1.515171]}, "properties": {"name": "Klinik Ido's Clinic", "amenity": "clinic", "lat": 1.515171, "lon": 103.670008, "osm_id": "node/7553897810"}}, {"type": "Feature", "geometry": {"type": "Point", "coordinates": [103.6846417, 1.4807596]}, "properties": {"name": "Poliklinik Abreza", "amenity": "clinic", "lat": 1.4807596, "lon": 103.6846417, "osm_id": "node/7554130059"}}, {"type": "Feature", "geometry": {"type": "Point", "coordinates": [103.6854129, 1.4816425]}, "properties": {"name": "Poliklinik Penawar", "amenity": "clinic", "lat": 1.4816425, "lon": 103.6854129, "osm_id": "node/7554130970"}}, {"type": "Feature", "geometry": {"type": "Point", "coordinates": [103.6674101, 1.517222]}, "properties": {"name": "Klinik Revival ME Clinic", "amenity": "clinic", "lat": 1.517222, "lon": 103.6674101, "osm_id": "node/7555418243"}}, {"type": "Feature", "geometry": {"type": "Point", "coordinates": [103.6670643, 1.5170786]}, "properties": {"name": "Lyvin Clinic", "amenity": "clinic", "lat": 1.5170786, "lon": 103.6670643, "osm_id": "node/7555418252"}}, {"type": "Feature", "geometry": {"type": "Point", "coordinates": [103.6695023, 1.5153336]}, "properties": {"name": "Klinik Medical Clinic", "amenity": "clinic", "lat": 1.5153336, "lon": 103.6695023, "osm_id": "node/7555421558"}}, {"type": "Feature", "geometry": {"type": "Point", "coordinates": [103.6803399, 1.518417]}, "properties": {"name": "Pusat Perubatan Tradisional Cina Nature Concept TCM Healthcare", "amenity": "doctors", "lat": 1.518417, "lon": 103.6803399, "osm_id": "node/7555547033"}}, {"type": "Feature", "geometry": {"type": "Point", "coordinates": [103.6799455, 1.52077]}, "properties": {"name": "Klinik Diagnostik BP", "amenity": "clinic", "lat": 1.52077, "lon": 103.6799455, "osm_id": "node/7555553629"}}, {"type": "Feature", "geometry": {"type": "Point", "coordinates": [103.6868151, 1.5069286]}, "properties": {"name": "Poliklinik Dan Surgeri", "amenity": "clinic", "lat": 1.5069286, "lon": 103.6868151, "osm_id": "node/7555646038"}}, {"type": "Feature", "geometry": {"type": "Point", "coordinates": [103.6877614, 1.5070938]}, "properties": {"name": "Poliklinik Bintang", "amenity": "clinic", "lat": 1.5070938, "lon": 103.6877614, "osm_id": "node/7555668705"}}, {"type": "Feature", "geometry": {"type": "Point", "coordinates": [102.9492079, 1.8352182]}, "properties": {"name": "Klinik Kurnia", "amenity": "clinic", "lat": 1.8352182, "lon": 102.9492079, "osm_id": "node/7692160999"}}, {"type": "Feature", "geometry": {"type": "Point", "coordinates": [103.6562148, 1.4947]}, "properties": {"name": "Jing Sen", "amenity": "clinic", "lat": 1.4947, "lon": 103.6562148, "osm_id": "node/7693521287"}}, {"type": "Feature", "geometry": {"type": "Point", "coordinates": [103.6195897, 1.6412383]}, "properties": {"name": "Klinik Dr Ko", "amenity": "clinic", "lat": 1.6412383, "lon": 103.6195897, "osm_id": "node/7818460000"}}, {"type": "Feature", "geometry": {"type": "Point", "coordinates": [103.6240773, 1.6502302]}, "properties": {"name": "Klinik Ar-Raudah Damai", "amenity": "clinic", "lat": 1.6502302, "lon": 103.6240773, "osm_id": "node/7818492216"}}, {"type": "Feature", "geometry": {"type": "Point", "coordinates": [103.3144031, 1.7895718]}, "properties": {"name": "Poliklinik Sejahtera", "amenity": "clinic", "lat": 1.7895718, "lon": 103.3144031, "osm_id": "node/7871101097"}}, {"type": "Feature", "geometry": {"type": "Point", "coordinates": [102.8828266, 1.9755713]}, "properties": {"name": "Kelinik Jaya", "amenity": "clinic", "lat": 1.9755713, "lon": 102.8828266, "osm_id": "node/7984260537"}}, {"type": "Feature", "geometry": {"type": "Point", "coordinates": [102.5567225, 2.1224527]}, "properties": {"name": "Klinik Desa Rawang", "amenity": "clinic", "lat": 2.1224527, "lon": 102.5567225, "osm_id": "node/7991292707"}}, {"type": "Feature", "geometry": {"type": "Point", "coordinates": [102.5496185, 2.1796961]}, "properties": {"name": "Klinik Desa Bukit Kangkar", "amenity": "clinic", "lat": 2.1796961, "lon": 102.5496185, "osm_id": "node/7991292770"}}, {"type": "Feature", "geometry": {"type": "Point", "coordinates": [102.5303202, 2.2544804]}, "properties": {"name": "Klinik Komuniti Taman Mega Ria", "amenity": "clinic", "lat": 2.2544804, "lon": 102.5303202, "osm_id": "node/7991634109"}}, {"type": "Feature", "geometry": {"type": "Point", "coordinates": [102.8160664, 2.505997]}, "properties": {"name": "Klinik Pakar Lim", "amenity": "clinic", "lat": 2.505997, "lon": 102.8160664, "osm_id": "node/8021340685"}}, {"type": "Feature", "geometry": {"type": "Point", "coordinates": [103.8688713, 1.493848]}, "properties": {"name": "Poliklinik Penawar", "amenity": "clinic", "lat": 1.493848, "lon": 103.8688713, "osm_id": "node/8085898536"}}, {"type": "Feature", "geometry": {"type": "Point", "coordinates": [103.6270251, 1.6382017]}, "properties": {"name": "Top Vision", "amenity": "clinic", "lat": 1.6382017, "lon": 103.6270251, "osm_id": "node/8167870908"}}, {"type": "Feature", "geometry": {"type": "Point", "coordinates": [103.7668093, 1.572855]}, "properties": {"name": "Klinik Puvvan", "amenity": "clinic", "lat": 1.572855, "lon": 103.7668093, "osm_id": "node/8184232775"}}, {"type": "Feature", "geometry": {"type": "Point", "coordinates": [103.5881527, 1.553018]}, "properties": {"name": "Klinik Komuniti Bandar Baru Kangkar Pulai", "amenity": "clinic", "lat": 1.553018, "lon": 103.5881527, "osm_id": "node/8191056479"}}, {"type": "Feature", "geometry": {"type": "Point", "coordinates": [103.6105585, 1.6513348]}, "properties": {"name": "Klinik Ooi dan Surgeri", "amenity": "clinic", "lat": 1.6513348, "lon": 103.6105585, "osm_id": "node/8242877828"}}, {"type": "Feature", "geometry": {"type": "Point", "coordinates": [103.5741582, 1.6553498]}, "properties": {"name": "Poliklinik Indah & Surgeri", "amenity": "clinic", "lat": 1.6553498, "lon": 103.5741582, "osm_id": "node/8252127294"}}, {"type": "Feature", "geometry": {"type": "Point", "coordinates": [103.5840516, 1.4614]}, "properties": {"name": "Klinik MM Care", "amenity": "clinic", "lat": 1.4614, "lon": 103.5840516, "osm_id": "node/8296325022"}}, {"type": "Feature", "geometry": {"type": "Point", "coordinates": [102.5640848, 2.0447204]}, "properties": {"name": "Klinik Pakar Ortodontik Muar", "amenity": "clinic", "lat": 2.0447204, "lon": 102.5640848, "osm_id": "node/8370639208"}}, {"type": "Feature", "geometry": {"type": "Point", "coordinates": [102.9525984, 1.9128959]}, "properties": {"name": "Poliklinik Al-Amin (BP)", "amenity": "clinic", "lat": 1.9128959, "lon": 102.9525984, "osm_id": "node/8646615624"}}, {"type": "Feature", "geometry": {"type": "Point", "coordinates": [102.5437271, 2.2735272]}, "properties": {"name": "Klinik Pergigian Hlite", "amenity": "clinic", "lat": 2.2735272, "lon": 102.5437271, "osm_id": "node/8779178545"}}, {"type": "Feature", "geometry": {"type": "Point", "coordinates": [103.782775, 1.5559915]}, "properties": {"name": "Klinik Pakar Matar Vista Eye Specialist", "amenity": "clinic", "lat": 1.5559915, "lon": 103.782775, "osm_id": "node/8847072644"}}, {"type": "Feature", "geometry": {"type": "Point", "coordinates": [103.3063424, 1.6720019]}, "properties": {"name": "Klinik Desa Parit Marjunit", "amenity": "clinic", "lat": 1.6720019, "lon": 103.3063424, "osm_id": "node/8848022084"}}, {"type": "Feature", "geometry": {"type": "Point", "coordinates": [103.6265106, 2.6487812]}, "properties": {"name": "Klinik Rompin", "amenity": "doctors", "lat": 2.6487812, "lon": 103.6265106, "osm_id": "node/8850763180"}}, {"type": "Feature", "geometry": {"type": "Point", "coordinates": [103.4016612, 1.5586733]}, "properties": {"name": null, "amenity": "clinic", "lat": 1.5586733, "lon": 103.4016612, "osm_id": "node/8870087622"}}, {"type": "Feature", "geometry": {"type": "Point", "coordinates": [103.8093834, 1.559738]}, "properties": {"name": "KLINIK PERGIGIAN CEMERLANG", "amenity": "hospital", "lat": 1.559738, "lon": 103.8093834, "osm_id": "node/9433161086"}}, {"type": "Feature", "geometry": {"type": "Point", "coordinates": [103.7761565, 1.4975955]}, "properties": {"name": "The Eye Specialist Southkey (\u773c\u79d1\u4e13\u5bb6 Southkey)", "amenity": "hospital", "lat": 1.4975955, "lon": 103.7761565, "osm_id": "node/9644871871"}}, {"type": "Feature", "geometry": {"type": "Point", "coordinates": [103.7461551, 1.5387888]}, "properties": {"name": "Klinik Mutiara", "amenity": "clinic", "lat": 1.5387888, "lon": 103.7461551, "osm_id": "node/9666875134"}}, {"type": "Feature", "geometry": {"type": "Point", "coordinates": [103.6675979, 1.6101903]}, "properties": {"name": "KLINIK LESTARI", "amenity": "hospital", "lat": 1.6101903, "lon": 103.6675979, "osm_id": "node/9671739763"}}, {"type": "Feature", "geometry": {"type": "Point", "coordinates": [103.7590833, 1.5727599]}, "properties": {"name": "Klinik Wah", "amenity": "clinic", "lat": 1.5727599, "lon": 103.7590833, "osm_id": "node/9863744257"}}, {"type": "Feature", "geometry": {"type": "Point", "coordinates": [103.7637037, 1.5435151]}, "properties": {"name": "Klinik Asia Taman Daya", "amenity": "clinic", "lat": 1.5435151, "lon": 103.7637037, "osm_id": "node/9878204970"}}, {"type": "Feature", "geometry": {"type": "Point", "coordinates": [103.7585868, 1.5597327]}, "properties": {"name": "Klinik Dr. Z", "amenity": "clinic", "lat": 1.5597327, "lon": 103.7585868, "osm_id": "node/9878243389"}}, {"type": "Feature", "geometry": {"type": "Point", "coordinates": [103.7438743, 1.5486601]}, "properties": {"name": "Pusat Rawatan Pakar Kanak-kanak Adda", "amenity": "clinic", "lat": 1.5486601, "lon": 103.7438743, "osm_id": "node/9878376542"}}, {"type": "Feature", "geometry": {"type": "Point", "coordinates": [103.7453403, 1.5473223]}, "properties": {"name": "Klinik Central", "amenity": "clinic", "lat": 1.5473223, "lon": 103.7453403, "osm_id": "node/9878376552"}}, {"type": "Feature", "geometry": {"type": "Point", "coordinates": [102.7717741, 2.1497125]}, "properties": {"name": "Klinik Pagoh", "amenity": "clinic", "lat": 2.1497125, "lon": 102.7717741, "osm_id": "node/9891929903"}}, {"type": "Feature", "geometry": {"type": "Point", "coordinates": [103.7345206, 1.5625363]}, "properties": {"name": "i-SiHAT Clinic", "amenity": "clinic", "lat": 1.5625363, "lon": 103.7345206, "osm_id": "node/9892831624"}}, {"type": "Feature", "geometry": {"type": "Point", "coordinates": [103.758843, 1.5664414]}, "properties": {"name": "Klinik Taman Daya JB", "amenity": "clinic", "lat": 1.5664414, "lon": 103.758843, "osm_id": "node/9929962049"}}, {"type": "Feature", "geometry": {"type": "Point", "coordinates": [102.9567086, 1.8114451]}, "properties": {"name": "Family Clinic Batu Pahat", "amenity": "clinic", "lat": 1.8114451, "lon": 102.9567086, "osm_id": "node/10088390804"}}, {"type": "Feature", "geometry": {"type": "Point", "coordinates": [103.6314825, 1.4257376]}, "properties": {"name": null, "amenity": "clinic", "lat": 1.4257376, "lon": 103.6314825, "osm_id": "node/10238204489"}}, {"type": "Feature", "geometry": {"type": "Point", "coordinates": [103.3321307, 2.0371447]}, "properties": {"name": "Poliklinik P & Lee", "amenity": "doctors", "lat": 2.0371447, "lon": 103.3321307, "osm_id": "node/10296350394"}}, {"type": "Feature", "geometry": {"type": "Point", "coordinates": [103.664373, 1.4809288]}, "properties": {"name": "Guoyi Tang", "amenity": "doctors", "lat": 1.4809288, "lon": 103.664373, "osm_id": "node/10605280399"}}, {"type": "Feature", "geometry": {"type": "Point", "coordinates": [103.6638755, 1.4811654]}, "properties": {"name": "Klinik Lee & Surgeri", "amenity": "clinic", "lat": 1.4811654, "lon": 103.6638755, "osm_id": "node/10605280402"}}, {"type": "Feature", "geometry": {"type": "Point", "coordinates": [103.6647733, 1.4795613]}, "properties": {"name": "Klinik Achutha", "amenity": "clinic", "lat": 1.4795613, "lon": 103.6647733, "osm_id": "node/10605285590"}}, {"type": "Feature", "geometry": {"type": "Point", "coordinates": [103.6649188, 1.4788427]}, "properties": {"name": "Famicare Medical Clinic", "amenity": "clinic", "lat": 1.4788427, "lon": 103.6649188, "osm_id": "node/10605285593"}}, {"type": "Feature", "geometry": {"type": "Point", "coordinates": [103.6570707, 1.4801465]}, "properties": {"name": "Klinik Mediviron", "amenity": "clinic", "lat": 1.4801465, "lon": 103.6570707, "osm_id": "node/10605293589"}}, {"type": "Feature", "geometry": {"type": "Point", "coordinates": [103.6615332, 1.4815723]}, "properties": {"name": "Klinik Kenko", "amenity": "clinic", "lat": 1.4815723, "lon": 103.6615332, "osm_id": "node/10605295225"}}, {"type": "Feature", "geometry": {"type": "Point", "coordinates": [103.6601016, 1.4824873]}, "properties": {"name": "Estee Clinic", "amenity": "clinic", "lat": 1.4824873, "lon": 103.6601016, "osm_id": "node/10605295234"}}, {"type": "Feature", "geometry": {"type": "Point", "coordinates": [103.7581318, 1.5722497]}, "properties": {"name": "Klinik Roswati", "amenity": "clinic", "lat": 1.5722497, "lon": 103.7581318, "osm_id": "node/10752228504"}}, {"type": "Feature", "geometry": {"type": "Point", "coordinates": [103.7580728, 1.572247]}, "properties": {"name": "Klinik Setia Indah", "amenity": "clinic", "lat": 1.572247, "lon": 103.7580728, "osm_id": "node/10752228905"}}, {"type": "Feature", "geometry": {"type": "Point", "coordinates": [103.758309, 1.5765711]}, "properties": {"name": "Kang Ming Family Clinic", "amenity": "clinic", "lat": 1.5765711, "lon": 103.758309, "osm_id": "node/10828314077"}}, {"type": "Feature", "geometry": {"type": "Point", "coordinates": [103.762809, 1.5451025]}, "properties": {"name": "Poliklinik Kathi", "amenity": "clinic", "lat": 1.5451025, "lon": 103.762809, "osm_id": "node/10841435863"}}, {"type": "Feature", "geometry": {"type": "Point", "coordinates": [102.9491752, 1.8420797]}, "properties": {"name": "\u674f\u798f\u5802\u4e2d\u533b\u8bca\u6240", "amenity": "hospital", "lat": 1.8420797, "lon": 102.9491752, "osm_id": "node/10845302341"}}, {"type": "Feature", "geometry": {"type": "Point", "coordinates": [103.7595047, 1.4659796]}, "properties": {"name": "Maria Hospital", "amenity": "hospital", "lat": 1.4659796, "lon": 103.7595047, "osm_id": "node/10858968181"}}, {"type": "Feature", "geometry": {"type": "Point", "coordinates": [103.8525206, 1.674053]}, "properties": {"name": "Klinik Adham", "amenity": "clinic", "lat": 1.674053, "lon": 103.8525206, "osm_id": "node/10913708643"}}, {"type": "Feature", "geometry": {"type": "Point", "coordinates": [103.7834363, 1.5546925]}, "properties": {"name": "Klinik my Clinic", "amenity": "clinic", "lat": 1.5546925, "lon": 103.7834363, "osm_id": "node/10933484556"}}, {"type": "Feature", "geometry": {"type": "Point", "coordinates": [103.782867, 1.5558487]}, "properties": {"name": "Klinik Pakar Perbidanan Tebrau", "amenity": "clinic", "lat": 1.5558487, "lon": 103.782867, "osm_id": "node/10933484593"}}, {"type": "Feature", "geometry": {"type": "Point", "coordinates": [103.7826095, 1.5563079]}, "properties": {"name": "Klinik Kanak-Kanak Kidz Kare", "amenity": "clinic", "lat": 1.5563079, "lon": 103.7826095, "osm_id": "node/10933492013"}}, {"type": "Feature", "geometry": {"type": "Point", "coordinates": [103.7873758, 1.5461641]}, "properties": {"name": "Pusat Rawatan Dan Akupunktur TKM", "amenity": "clinic", "lat": 1.5461641, "lon": 103.7873758, "osm_id": "node/10933494370"}}, {"type": "Feature", "geometry": {"type": "Point", "coordinates": [103.785804, 1.5519589]}, "properties": {"name": "Klinik Lee", "amenity": "clinic", "lat": 1.5519589, "lon": 103.785804, "osm_id": "node/10933495525"}}, {"type": "Feature", "geometry": {"type": "Point", "coordinates": [103.7916988, 1.5522941]}, "properties": {"name": "Pusat Rawatan Tradisional Cina Loh Kong Jin", "amenity": "clinic", "lat": 1.5522941, "lon": 103.7916988, "osm_id": "node/10946614745"}}, {"type": "Feature", "geometry": {"type": "Point", "coordinates": [103.7919147, 1.5518718]}, "properties": {"name": "Kedai Peralatan Kesihatan JM Healthcare", "amenity": "clinic", "lat": 1.5518718, "lon": 103.7919147, "osm_id": "node/10946614752"}}, {"type": "Feature", "geometry": {"type": "Point", "coordinates": [103.7798937, 1.5612273]}, "properties": {"name": "Klinik Yap", "amenity": "clinic", "lat": 1.5612273, "lon": 103.7798937, "osm_id": "node/10946615598"}}, {"type": "Feature", "geometry": {"type": "Point", "coordinates": [103.7769373, 1.5621201]}, "properties": {"name": "Klinik Family Health", "amenity": "clinic", "lat": 1.5621201, "lon": 103.7769373, "osm_id": "node/10946616167"}}, {"type": "Feature", "geometry": {"type": "Point", "coordinates": [103.7728288, 1.5592237]}, "properties": {"name": "Klinik Union Medic", "amenity": "clinic", "lat": 1.5592237, "lon": 103.7728288, "osm_id": "node/10946617820"}}, {"type": "Feature", "geometry": {"type": "Point", "coordinates": [103.7737984, 1.559821]}, "properties": {"name": "Klinik Joycelyn Lim", "amenity": "clinic", "lat": 1.559821, "lon": 103.7737984, "osm_id": "node/10946617871"}}, {"type": "Feature", "geometry": {"type": "Point", "coordinates": [103.7885023, 1.5580922]}, "properties": {"name": "Pusat Fisioterapi JB Physio Therapy", "amenity": "clinic", "lat": 1.5580922, "lon": 103.7885023, "osm_id": "node/10946618151"}}, {"type": "Feature", "geometry": {"type": "Point", "coordinates": [103.7900318, 1.5552595]}, "properties": {"name": "Klinik K-Health", "amenity": "clinic", "lat": 1.5552595, "lon": 103.7900318, "osm_id": "node/10946618185"}}, {"type": "Feature", "geometry": {"type": "Point", "coordinates": [103.779659, 1.561671]}, "properties": {"name": "Klinik Sia & Partners", "amenity": "clinic", "lat": 1.561671, "lon": 103.779659, "osm_id": "node/10946620727"}}, {"type": "Feature", "geometry": {"type": "Point", "coordinates": [103.7781811, 1.5645184]}, "properties": {"name": "Klinik MX Clinic", "amenity": "clinic", "lat": 1.5645184, "lon": 103.7781811, "osm_id": "node/10946622246"}}, {"type": "Feature", "geometry": {"type": "Point", "coordinates": [103.778794, 1.5624472]}, "properties": {"name": "Klinik MediSpring Family Polyclinic", "amenity": "clinic", "lat": 1.5624472, "lon": 103.778794, "osm_id": "node/10946622450"}}, {"type": "Feature", "geometry": {"type": "Point", "coordinates": [103.7772122, 1.5650976]}, "properties": {"name": "Klinik Austin", "amenity": "clinic", "lat": 1.5650976, "lon": 103.7772122, "osm_id": "node/10946622542"}}, {"type": "Feature", "geometry": {"type": "Point", "coordinates": [103.7762795, 1.5682527]}, "properties": {"name": "\u6e58\u674f\u4e2d\u533b\u5987\u5e7c\u95e8\u8bca", "amenity": "clinic", "lat": 1.5682527, "lon": 103.7762795, "osm_id": "node/11003341168"}}, {"type": "Feature", "geometry": {"type": "Point", "coordinates": [103.6633466, 1.4866563]}, "properties": {"name": "Klinik Soon", "amenity": "clinic", "lat": 1.4866563, "lon": 103.6633466, "osm_id": "node/11056068305"}}, {"type": "Feature", "geometry": {"type": "Point", "coordinates": [103.7587219, 1.5762709]}, "properties": {"name": "Klinik MediChan", "amenity": "clinic", "lat": 1.5762709, "lon": 103.7587219, "osm_id": "node/11198639687"}}, {"type": "Feature", "geometry": {"type": "Point", "coordinates": [103.7571918, 1.5725901]}, "properties": {"name": "Klinik Mediviron Setia Indah", "amenity": "clinic", "lat": 1.5725901, "lon": 103.7571918, "osm_id": "node/11358125641"}}, {"type": "Feature", "geometry": {"type": "Point", "coordinates": [103.6633976, 1.6354374]}, "properties": {"name": "Poliklinik Rozikin & Surger", "amenity": "clinic", "lat": 1.6354374, "lon": 103.6633976, "osm_id": "node/11388876549"}}, {"type": "Feature", "geometry": {"type": "Point", "coordinates": [104.108929, 1.925678]}, "properties": {"name": "Klinik Kesihatan Tanjung Sedili", "amenity": "clinic", "lat": 1.925678, "lon": 104.108929, "osm_id": "node/11515698686"}}, {"type": "Feature", "geometry": {"type": "Point", "coordinates": [104.2238724, 1.3496539]}, "properties": {"name": "Klinik Kesihatan Sungai Rengit", "amenity": "clinic", "lat": 1.3496539, "lon": 104.2238724, "osm_id": "node/11516532505"}}, {"type": "Feature", "geometry": {"type": "Point", "coordinates": [104.2725009, 1.3883338]}, "properties": {"name": "Klinik Kesihatan Bayu Damai Pengerang", "amenity": "clinic", "lat": 1.3883338, "lon": 104.2725009, "osm_id": "node/11516600883"}}, {"type": "Feature", "geometry": {"type": "Point", "coordinates": [103.6468329, 1.5938578]}, "properties": {"name": "Klinik Sukimi", "amenity": "clinic", "lat": 1.5938578, "lon": 103.6468329, "osm_id": "node/11516670270"}}, {"type": "Feature", "geometry": {"type": "Point", "coordinates": [103.645733, 1.5971052]}, "properties": {"name": "Klinik Senai", "amenity": "clinic", "lat": 1.5971052, "lon": 103.645733, "osm_id": "node/11516670274"}}, {"type": "Feature", "geometry": {"type": "Point", "coordinates": [103.7487899, 1.574268]}, "properties": {"name": "Poliklinik A2", "amenity": "clinic", "lat": 1.574268, "lon": 103.7487899, "osm_id": "node/11637259216"}}, {"type": "Feature", "geometry": {"type": "Point", "coordinates": [103.7600546, 1.4855038]}, "properties": {"name": "Klinik Zemlya Clinic", "amenity": "clinic", "lat": 1.4855038, "lon": 103.7600546, "osm_id": "node/11676731327"}}, {"type": "Feature", "geometry": {"type": "Point", "coordinates": [103.7600628, 1.4851093]}, "properties": {"name": "Klinik Lihui", "amenity": "clinic", "lat": 1.4851093, "lon": 103.7600628, "osm_id": "node/11676731355"}}, {"type": "Feature", "geometry": {"type": "Point", "coordinates": [103.7609155, 1.4852228]}, "properties": {"name": "Kedai Ubat Dan Perniagaan Zhong Xing", "amenity": "clinic", "lat": 1.4852228, "lon": 103.7609155, "osm_id": "node/11676731454"}}, {"type": "Feature", "geometry": {"type": "Point", "coordinates": [103.7594251, 1.4879692]}, "properties": {"name": "LAFAVIO", "amenity": "clinic", "lat": 1.4879692, "lon": 103.7594251, "osm_id": "node/11676731879"}}, {"type": "Feature", "geometry": {"type": "Point", "coordinates": [103.758076, 1.5765887]}, "properties": {"name": "Southern Medical Clinic", "amenity": "clinic", "lat": 1.5765887, "lon": 103.758076, "osm_id": "node/11704058847"}}, {"type": "Feature", "geometry": {"type": "Point", "coordinates": [103.7737009, 1.4814965]}, "properties": {"name": "Klinik Pelangi", "amenity": "clinic", "lat": 1.4814965, "lon": 103.7737009, "osm_id": "node/11733147386"}}, {"type": "Feature", "geometry": {"type": "Point", "coordinates": [103.7744389, 1.4815893]}, "properties": {"name": "Pusat Perubatan Akupunktur Huaren TCM Centre", "amenity": "clinic", "lat": 1.4815893, "lon": 103.7744389, "osm_id": "node/11733147394"}}, {"type": "Feature", "geometry": {"type": "Point", "coordinates": [103.7745064, 1.4820871]}, "properties": {"name": "Qin TCM Acumedic Centre", "amenity": "clinic", "lat": 1.4820871, "lon": 103.7745064, "osm_id": "node/11733147410"}}, {"type": "Feature", "geometry": {"type": "Point", "coordinates": [103.772916, 1.4822359]}, "properties": {"name": "Pusat Akupunktur Korean Advanced TCM", "amenity": "clinic", "lat": 1.4822359, "lon": 103.772916, "osm_id": "node/11733147433"}}, {"type": "Feature", "geometry": {"type": "Point", "coordinates": [103.7750091, 1.4836543]}, "properties": {"name": "Pakar Kanak-Kanak S.T. Lim", "amenity": "clinic", "lat": 1.4836543, "lon": 103.7750091, "osm_id": "node/11733147462"}}, {"type": "Feature", "geometry": {"type": "Point", "coordinates": [103.7749693, 1.4841736]}, "properties": {"name": "Pakar Perbidanan Wanita", "amenity": "clinic", "lat": 1.4841736, "lon": 103.7749693, "osm_id": "node/11733147466"}}, {"type": "Feature", "geometry": {"type": "Point", "coordinates": [103.7753959, 1.4844444]}, "properties": {"name": "Klinik Dr. Ko", "amenity": "clinic", "lat": 1.4844444, "lon": 103.7753959, "osm_id": "node/11733159475"}}, {"type": "Feature", "geometry": {"type": "Point", "coordinates": [103.7754988, 1.4833007]}, "properties": {"name": "Klinik Irvine", "amenity": "clinic", "lat": 1.4833007, "lon": 103.7754988, "osm_id": "node/11733159485"}}, {"type": "Feature", "geometry": {"type": "Point", "coordinates": [103.775533, 1.4829213]}, "properties": {"name": "Ren Kang Healthcare Centre", "amenity": "clinic", "lat": 1.4829213, "lon": 103.775533, "osm_id": "node/11733160200"}}, {"type": "Feature", "geometry": {"type": "Point", "coordinates": [103.7742248, 1.4798464]}, "properties": {"name": "Klinik Pakar Mata Tan Eye Surgery & Laser", "amenity": "clinic", "lat": 1.4798464, "lon": 103.7742248, "osm_id": "node/11733292033"}}, {"type": "Feature", "geometry": {"type": "Point", "coordinates": [103.7738302, 1.4803582]}, "properties": {"name": "Klinik Chen", "amenity": "clinic", "lat": 1.4803582, "lon": 103.7738302, "osm_id": "node/11733292042"}}, {"type": "Feature", "geometry": {"type": "Point", "coordinates": [103.7736259, 1.4806238]}, "properties": {"name": "Pusat Akupunktur Dan Produk Herba Cina TCM Acupunture Centre", "amenity": "clinic", "lat": 1.4806238, "lon": 103.7736259, "osm_id": "node/11733292045"}}, {"type": "Feature", "geometry": {"type": "Point", "coordinates": [102.5863174, 2.0484804]}, "properties": {"name": null, "amenity": "clinic", "lat": 2.0484804, "lon": 102.5863174, "osm_id": "node/11964592870"}}, {"type": "Feature", "geometry": {"type": "Point", "coordinates": [103.7819336, 1.5169908]}, "properties": {"name": "Klinik OverseaA", "amenity": "clinic", "lat": 1.5169908, "lon": 103.7819336, "osm_id": "node/12068334964"}}, {"type": "Feature", "geometry": {"type": "Point", "coordinates": [103.781613, 1.5176433]}, "properties": {"name": "Perkhidmatan Perunding Kesihatan Revine", "amenity": "doctors", "lat": 1.5176433, "lon": 103.781613, "osm_id": "node/12068363934"}}, {"type": "Feature", "geometry": {"type": "Point", "coordinates": [103.7593403, 1.4663748]}, "properties": {"name": "Teo Orthopaedic Specialist Clinic", "amenity": "clinic", "lat": 1.4663748, "lon": 103.7593403, "osm_id": "node/12300616385"}}, {"type": "Feature", "geometry": {"type": "Point", "coordinates": [103.7595413, 1.4661083]}, "properties": {"name": "Klinik Pakar Perubatan Chin", "amenity": "clinic", "lat": 1.4661083, "lon": 103.7595413, "osm_id": "node/12300616394"}}, {"type": "Feature", "geometry": {"type": "Point", "coordinates": [103.7605734, 1.464838]}, "properties": {"name": "Klinik Gan", "amenity": "clinic", "lat": 1.464838, "lon": 103.7605734, "osm_id": "node/12300616395"}}, {"type": "Feature", "geometry": {"type": "Point", "coordinates": [103.7592757, 1.4664792]}, "properties": {"name": "Faizal Women Specialist Clinic", "amenity": "clinic", "lat": 1.4664792, "lon": 103.7592757, "osm_id": "node/12300616711"}}, {"type": "Feature", "geometry": {"type": "Point", "coordinates": [102.9365532, 1.8584069]}, "properties": {"name": "Klinik Elizabeth", "amenity": "clinic", "lat": 1.8584069, "lon": 102.9365532, "osm_id": "node/12382127486"}}, {"type": "Feature", "geometry": {"type": "Point", "coordinates": [102.9507479, 1.8639932]}, "properties": {"name": "Klinik Pakar Mata Normah", "amenity": "clinic", "lat": 1.8639932, "lon": 102.9507479, "osm_id": "node/12390023269"}}, {"type": "Feature", "geometry": {"type": "Point", "coordinates": [102.9281222, 1.8495507]}, "properties": {"name": "Klinik Laysia", "amenity": "clinic", "lat": 1.8495507, "lon": 102.9281222, "osm_id": "node/12393511554"}}, {"type": "Feature", "geometry": {"type": "Point", "coordinates": [102.926287, 1.8576608]}, "properties": {"name": "Klinik Nur", "amenity": "clinic", "lat": 1.8576608, "lon": 102.926287, "osm_id": "node/12397531201"}}, {"type": "Feature", "geometry": {"type": "Point", "coordinates": [102.9449165, 1.8665007]}, "properties": {"name": "Poliklinik Falah Medica", "amenity": "clinic", "lat": 1.8665007, "lon": 102.9449165, "osm_id": "node/12397731996"}}, {"type": "Feature", "geometry": {"type": "Point", "coordinates": [102.9433567, 1.8676749]}, "properties": {"name": "Maju Specialist Clinic", "amenity": "clinic", "lat": 1.8676749, "lon": 102.9433567, "osm_id": "node/12397749013"}}, {"type": "Feature", "geometry": {"type": "Point", "coordinates": [102.9429485, 1.8677104]}, "properties": {"name": "Klinik Johor", "amenity": "clinic", "lat": 1.8677104, "lon": 102.9429485, "osm_id": "node/12397764696"}}, {"type": "Feature", "geometry": {"type": "Point", "coordinates": [102.9498912, 1.8634789]}, "properties": {"name": "Klinik Pakar Kanak-Kanak Az-Zahraa", "amenity": "clinic", "lat": 1.8634789, "lon": 102.9498912, "osm_id": "node/12450773480"}}, {"type": "Feature", "geometry": {"type": "Point", "coordinates": [102.9438126, 1.8676281]}, "properties": {"name": "\u5b8f\u4ec1\u8f69\u4e2d\u533b", "amenity": "clinic", "lat": 1.8676281, "lon": 102.9438126, "osm_id": "node/12450829649"}}, {"type": "Feature", "geometry": {"type": "Point", "coordinates": [103.3517719, 2.0541025]}, "properties": {"name": "KLINIK VR FAMILY CARE", "amenity": "hospital", "lat": 2.0541025, "lon": 103.3517719, "osm_id": "node/12455620213"}}, {"type": "Feature", "geometry": {"type": "Point", "coordinates": [103.7604135, 1.4630866]}, "properties": {"name": "KPJ Medical Suites", "amenity": "clinic", "lat": 1.4630866, "lon": 103.7604135, "osm_id": "node/12466420732"}}, {"type": "Feature", "geometry": {"type": "Point", "coordinates": [102.5858868, 2.0484965]}, "properties": {"name": "H-II Clinic", "amenity": "clinic", "lat": 2.0484965, "lon": 102.5858868, "osm_id": "node/12535601310"}}, {"type": "Feature", "geometry": {"type": "Point", "coordinates": [102.5859405, 2.0484926]}, "properties": {"name": "Family Clinic", "amenity": "clinic", "lat": 2.0484926, "lon": 102.5859405, "osm_id": "node/12535716338"}}, {"type": "Feature", "geometry": {"type": "Point", "coordinates": [102.9293531, 1.8525195]}, "properties": {"name": "Klinik Kee", "amenity": "clinic", "lat": 1.8525195, "lon": 102.9293531, "osm_id": "node/12537874908"}}, {"type": "Feature", "geometry": {"type": "Point", "coordinates": [102.5979864, 2.0604884]}, "properties": {"name": "Klinik Salam", "amenity": "clinic", "lat": 2.0604884, "lon": 102.5979864, "osm_id": "node/12539160134"}}, {"type": "Feature", "geometry": {"type": "Point", "coordinates": [102.9276307, 1.8547636]}, "properties": {"name": "Poliklinik Hidayah", "amenity": "clinic", "lat": 1.8547636, "lon": 102.9276307, "osm_id": "node/12589525609"}}, {"type": "Feature", "geometry": {"type": "Point", "coordinates": [103.7621155, 1.4626316]}, "properties": {"name": "Klinik Dr. Mahmud JB", "amenity": "clinic", "lat": 1.4626316, "lon": 103.7621155, "osm_id": "node/12697721142"}}, {"type": "Feature", "geometry": {"type": "Point", "coordinates": [103.3194709, 2.0353238]}, "properties": {"name": "Klinik Mesra Kluang", "amenity": "clinic", "lat": 2.0353238, "lon": 103.3194709, "osm_id": "node/12754577962"}}, {"type": "Feature", "geometry": {"type": "Point", "coordinates": [103.5678188, 1.5569136]}, "properties": {"name": "Klinik Adham", "amenity": "clinic", "lat": 1.5569136, "lon": 103.5678188, "osm_id": "node/12897400283"}}, {"type": "Feature", "geometry": {"type": "Point", "coordinates": [103.6321729, 1.5404731]}, "properties": {"name": "Klinik Siti Fatimah", "amenity": "clinic", "lat": 1.5404731, "lon": 103.6321729, "osm_id": "node/12986616394"}}, {"type": "Feature", "geometry": {"type": "Point", "coordinates": [103.6507419, 1.4786384]}, "properties": {"name": "Hong Yuan TCM \u9e3f\u5143\u4e2d\u533b", "amenity": "clinic", "lat": 1.4786384, "lon": 103.6507419, "osm_id": "node/13256972691"}}, {"type": "Feature", "geometry": {"type": "Point", "coordinates": [103.5111585, 1.5092439]}, "properties": {"name": "Perkhidmatan Tabib Cina Da An TCM Centre", "amenity": "clinic", "lat": 1.5092439, "lon": 103.5111585, "osm_id": "node/13603070122"}}, {"type": "Feature", "geometry": {"type": "Point", "coordinates": [103.5129771, 1.5073972]}, "properties": {"name": "Klinik 1 Hope", "amenity": "clinic", "lat": 1.5073972, "lon": 103.5129771, "osm_id": "node/13603071083"}}, {"type": "Feature", "geometry": {"type": "Point", "coordinates": [103.5107025, 1.507485]}, "properties": {"name": "Klinik Tan & Lum", "amenity": "clinic", "lat": 1.507485, "lon": 103.5107025, "osm_id": "node/13603071383"}}, {"type": "Feature", "geometry": {"type": "Point", "coordinates": [103.5089725, 1.5094544]}, "properties": {"name": "Klinik Medirra", "amenity": "clinic", "lat": 1.5094544, "lon": 103.5089725, "osm_id": "node/13603071517"}}, {"type": "Feature", "geometry": {"type": "Point", "coordinates": [103.5092881, 1.5096419]}, "properties": {"name": "Klinik Maxcare", "amenity": "clinic", "lat": 1.5096419, "lon": 103.5092881, "osm_id": "node/13603071702"}}, {"type": "Feature", "geometry": {"type": "Point", "coordinates": [103.5102289, 1.5093961]}, "properties": {"name": "Klinik Polilinik Pekan Nenas", "amenity": "clinic", "lat": 1.5093961, "lon": 103.5102289, "osm_id": "node/13603071712"}}, {"type": "Feature", "geometry": {"type": "Point", "coordinates": [103.509631, 1.5085061]}, "properties": {"name": "Klinik Johor", "amenity": "clinic", "lat": 1.5085061, "lon": 103.509631, "osm_id": "node/13603071738"}}, {"type": "Feature", "geometry": {"type": "Point", "coordinates": [103.2599439, 1.6490558]}, "properties": {"name": null, "amenity": "clinic", "lat": 1.6490558, "lon": 103.2599439, "osm_id": "node/13622711301"}}, {"type": "Feature", "geometry": {"type": "Point", "coordinates": [103.2592511, 1.6490598]}, "properties": {"name": null, "amenity": "clinic", "lat": 1.6490598, "lon": 103.2592511, "osm_id": "node/13622712002"}}, {"type": "Feature", "geometry": {"type": "Point", "coordinates": [103.7456734, 1.5480048]}, "properties": {"name": "Klinik Hana", "amenity": "clinic", "lat": 1.5480048, "lon": 103.7456734, "osm_id": "node/13634283973"}}, {"type": "Feature", "geometry": {"type": "Point", "coordinates": [103.743073, 1.5481623]}, "properties": {"name": "Klinik Luxe's Clinic", "amenity": "clinic", "lat": 1.5481623, "lon": 103.743073, "osm_id": "node/13634283993"}}, {"type": "Feature", "geometry": {"type": "Point", "coordinates": [103.7432018, 1.5481141]}, "properties": {"name": "Klinik Dr. Suria", "amenity": "clinic", "lat": 1.5481141, "lon": 103.7432018, "osm_id": "node/13634283995"}}, {"type": "Feature", "geometry": {"type": "Point", "coordinates": [103.7435592, 1.5479666]}, "properties": {"name": "Klinik Noor Hetty", "amenity": "clinic", "lat": 1.5479666, "lon": 103.7435592, "osm_id": "node/13634283999"}}, {"type": "Feature", "geometry": {"type": "Point", "coordinates": [103.7439944, 1.5478158]}, "properties": {"name": "Klinik Tong & Surgeri", "amenity": "clinic", "lat": 1.5478158, "lon": 103.7439944, "osm_id": "node/13634305205"}}, {"type": "Feature", "geometry": {"type": "Point", "coordinates": [103.7452047, 1.5473714]}, "properties": {"name": "Klinik Anda", "amenity": "clinic", "lat": 1.5473714, "lon": 103.7452047, "osm_id": "node/13634305216"}}, {"type": "Feature", "geometry": {"type": "Point", "coordinates": [102.6527132, 2.2133276]}, "properties": {"name": "Klinik Union Medic", "amenity": "clinic", "lat": 2.2133276, "lon": 102.6527132, "osm_id": "node/13640410160"}}, {"type": "Feature", "geometry": {"type": "Point", "coordinates": [103.6070241, 1.6555571]}, "properties": {"name": "Klinik Kesihatan Kulai", "amenity": "clinic", "lat": 1.6555571, "lon": 103.6070241, "osm_id": "node/13647648541"}}, {"type": "Feature", "geometry": {"type": "Point", "coordinates": [103.0841335, 1.8565708]}, "properties": {"name": "PKU UTHM", "amenity": "clinic", "lat": 1.8565708, "lon": 103.0841335, "osm_id": "node/13663104917"}}, {"type": "Feature", "geometry": {"type": "Point", "coordinates": [103.6572991, 1.4764775]}, "properties": {"name": null, "amenity": "clinic", "lat": 1.4764775, "lon": 103.6572991, "osm_id": "node/13674532601"}}, {"type": "Feature", "geometry": {"type": "Point", "coordinates": [103.3962408, 1.8846623]}, "properties": {"name": "Klinik Kesihatan Renggam", "amenity": "clinic", "lat": 1.8846623, "lon": 103.3962408, "osm_id": "node/14085081213"}}, {"type": "Feature", "geometry": {"type": "Point", "coordinates": [103.3733769, 1.9209834]}, "properties": {"name": "Klinik Desa Sungai Sayong", "amenity": "clinic", "lat": 1.9209834, "lon": 103.3733769, "osm_id": "node/14085747703"}}, {"type": "Feature", "geometry": {"type": "Point", "coordinates": [103.4111416, 1.8414103]}, "properties": {"name": "Klinik Desa Kampung Tengah Renggam", "amenity": "clinic", "lat": 1.8414103, "lon": 103.4111416, "osm_id": "node/14085747705"}}]}